the_geom,lon,objectid,service_request_id,status,status_notes,service_name,service_code,agency_responsible,the_geom_webmercator,requested_datetime,updated_datetime,expected_datetime,address,zipcode,media_url,lat,service_notice
0101000020E610000033F0AB8B3ECE52C008FD8ED940F94340,-75.222567477,32,8967043,Closed,Issue Resolved,Graffiti Removal,SR-CL01,Community Life Improvement Program,0101000020110F00001E441D7A7AF15FC1586652726B885241,2015-01-11 10:45:10,2015-08-12 03:47:02,2015-01-19 19:00:00,708 S 50TH ST,19143,,39.947291562,7 Business Days
,,35,11379517,Closed,Question Answered,Information Request,SR-IR01,Register of Wills/ Orphans Court,,2017-06-19 08:41:24,2017-06-19 08:41:32,2017-06-19 09:00:12,,,,,
,,37,11379519,Closed,,Information Request,SR-IR01,Streets Department,,2017-06-19 08:41:33,2017-06-19 08:42:00,2017-06-19 09:00:12,,,,,
0101000020E6100000FD40E2EC10CA52C0823B0E8BEAF64340,-75.157283038,39,8967052,Closed,Issue Resolved,Graffiti Removal,SR-CL01,Community Life Improvement Program,0101000020110F00004F078E9E61EA5FC1222ECCB6D4855241,2015-01-11 12:15:21,2015-08-12 03:47:02,2015-01-19 19:00:00,711 TASKER ST,19147,https://d21tc4b3k3r3vo.cloudfront.net/uploads/27412/requests/54b2ab3126d8a-369.jpg,39.929032692,7 Business Days
0101000020E6100000DBD3DD8E93D052C0336E499290FC4340,-75.259006233,40,8967049,Closed,Information Provided,Graffiti Removal,SR-CL01,Community Life Improvement Program,0101000020110F00007289129070F55FC110CE09C1168C5241,2015-01-11 12:15:10,2015-08-12 03:47:02,2015-01-19 19:00:00,7223 LANSDOWNE AVE,19151,,39.973161974,7 Business Days
0101000020E6100000CF01F68F0DCA52C0145F8AFE12F74340,-75.157077775,41,8967048,Closed,Issue Resolved,Graffiti Removal,SR-CL01,Community Life Improvement Program,0101000020110F000042D330E85BEA5FC1A522F08301865241,2015-01-11 12:15:06,2015-08-12 03:47:02,2015-01-19 19:00:00,711 DICKINSON ST,19147,,39.930267155,7 Business Days
,,3469433,11817734,Closed,Question Answered,Information Request,SR-IR01,Managing Director's Office- MDO,,2018-02-12 17:01:36,2018-02-12 17:01:46,2018-02-12 17:30:13,,,,,
,,92,8997221,Closed,,Information Request,SR-IR01,Licenses & Inspections- L&I,,2015-01-30 19:15:02,2015-01-30 19:17:11,,,19111,,,None
,,93,8997222,Closed,Question Answered,Information Request,SR-IR01,Philly311 Contact Center,,2015-01-30 19:25:35,2015-02-13 06:17:03,,,,,,None
,,94,8997223,Closed,Question Answered,Information Request,SR-IR01,Philly311 Contact Center,,2015-01-30 19:29:00,2015-02-13 06:17:03,,,,,,None
,,95,8997224,Closed,Question Answered,Information Request,SR-IR01,Philly311 Contact Center,,2015-01-30 19:30:05,2015-01-30 19:30:06,,,,,,None
,,96,8997225,Closed,Question Answered,Information Request,SR-IR01,Free Library,,2015-01-30 19:30:55,2015-01-30 19:33:31,,,19141,,,None
,,97,8997226,Closed,Question Answered,Information Request,SR-IR01,Philly311 Contact Center,,2015-01-30 19:31:20,2015-01-30 19:31:21,,,,,,None
0101000020E6100000AEAFE04495CA52C08D9ED7AF26064440,-75.165360656,98,8997227,Closed,Repair Completed,Smoke Detector,SR-FD02,Fire Department,0101000020110F0000BA39226B42EB5FC1FF265403B8965241,2015-01-30 19:31:41,2015-04-03 08:59:27,2015-04-23 20:00:00,856 E RITTENHOUSE ST,19138,,40.048055629,60 Business Days
,,99,8997229,Closed,Question Answered,Information Request,SR-IR01,Philly311 Contact Center,,2015-01-30 19:35:02,2015-01-30 19:35:03,,,,,,None
,,100,8997232,Closed,Question Answered,Information Request,SR-IR01,Police Department,,2015-01-30 19:39:09,2015-01-30 19:39:09,,,19122,,,None
,,101,8997233,Closed,Question Answered,Information Request,SR-IR01,Philly311 Contact Center,,2015-01-30 19:44:56,2015-01-30 19:44:57,,,,,,None
0101000020E610000077FB07EC05CD52C03D86012AA0FA4340,-75.203486447,123,8997322,Closed,Issue Resolved,Graffiti Removal,SR-CL01,Community Life Improvement Program,0101000020110F000086CD517467EF5FC1E9F541ACF0895241,2015-01-31 17:15:44,2015-08-12 03:47:22,2015-02-09 19:00:00,16 N PRESTON ST,19104,https://d21tc4b3k3r3vo.cloudfront.net/uploads/27412/requests/54cd529229c59-369.jpg,39.958012822,7 Business Days
,,3463549,11814732,Closed,Question Answered,Information Request,SR-IR01,Philly311 Contact Center,,2018-02-09 18:34:34,2018-02-09 18:34:48,2018-02-09 19:00:39,,,,,
0101000020E61000009B25F9F8A1CD52C016653E396DFC4340,-75.213011016,128,8997328,Closed,Issue Resolved,Abandoned Vehicle,SR-PD01,Police Department,0101000020110F00002F1C9E8570F05FC16B148A94EF8B5241,2015-01-31 17:45:15,2015-08-12 03:47:22,2015-03-12 20:00:00,4500 POPLAR ST,,https://d21tc4b3k3r3vo.cloudfront.net/uploads/27412/requests/54cd5503e3cec-369.jpg,39.972083241,30 Business Days
,,102,8997234,Closed,Question Answered,Information Request,SR-IR01,Prisons,,2015-01-30 19:46:14,2015-01-30 19:46:43,,,19154,,,None
,,103,8997235,Closed,Question Answered,Information Request,SR-IR01,Department of Public Health,,2015-01-30 19:51:20,2015-01-30 19:51:56,,,19136,,,None
,,104,8997236,Closed,Question Answered,Information Request,SR-IR01,Police Department,,2015-01-30 19:51:44,2015-01-30 19:53:11,,,19148,,,None
,,105,8997237,Closed,Question Answered,Information Request,SR-IR01,,,2015-01-30 19:55:53,2015-01-30 19:56:27,,,,,,None
,,106,8997238,Closed,Question Answered,Information Request,SR-IR01,Prisons,,2015-01-30 19:56:11,2015-01-30 19:56:31,,,19150,,,None
0101000020E6100000F731EE1F6ECD52C0ACF5B0DD5EFA4340,-75.209846478,74,8967085,Closed,Issue Resolved,Graffiti Removal,SR-CL01,Community Life Improvement Program,0101000020110F00009DD0047418F05FC19C17D252A8895241,2015-01-11 17:45:30,2015-08-12 03:47:06,2015-01-19 19:00:00,115 S 44TH ST,19104,https://d21tc4b3k3r3vo.cloudfront.net/uploads/27412/requests/54b2fc4de8745-369.jpg,39.956020078,7 Business Days
,,77,11348781,Closed,,Information Request,SR-IR01,Streets Department,,2017-05-31 16:30:37,2017-05-31 16:31:13,2017-05-31 17:00:12,,,,,
,,78,11348784,Closed,Question Answered,Information Request,SR-IR01,Police Department,,2017-05-31 16:31:13,2017-05-31 16:31:24,2017-05-31 17:00:12,,,,,
0101000020E61000006FCFFB1856C652C0BD7538993CFF4340,-75.099004975,80,11343565,Closed,Question Answered,Information Request,SR-IR01,Philly311 Contact Center,0101000020110F0000C5C494BF0BE45FC17CD3E9F00C8F5241,2017-05-29 11:20:21,2017-05-31 16:32:13,2017-05-31 17:00:12,3560 TULIP ST,,,39.994036817,
,,81,11348786,Closed,,Information Request,SR-IR01,Water Department (PWD),,2017-05-31 16:31:35,2017-05-31 16:32:20,2017-05-31 17:00:12,,,,,
,,84,11348780,Closed,Question Answered,Information Request,SR-IR01,Department of Records,,2017-05-31 16:30:21,2017-05-31 16:30:41,2017-05-31 17:00:12,,,,,
0101000020E61000008C9FC6BDF9C852C0B14E95EF19FB4340,-75.140243,85,8967093,Closed,Repair Completed,Graffiti Removal,SR-CL01,Community Life Improvement Program,0101000020110F0000E099AF6587E85FC14B799399778A5241,2015-01-11 21:45:06,2015-08-12 03:47:10,2015-01-19 19:00:00,128?134 Fairmount Ave,,https://d21tc4b3k3r3vo.cloudfront.net/uploads/27412/requests/54b33108bf285-369.jpg,39.961729,7 Business Days
0101000020E6100000CD6152D7B5CE52C0EA7FB1A5E4F74340,-75.229848702,86,8967094,Closed,Issue Resolved,Graffiti Removal,SR-CL01,Community Life Improvement Program,0101000020110F00002686C81C45F25FC1A1DD56BAE9865241,2015-01-11 22:15:06,2015-08-12 03:47:08,2015-01-19 19:00:00,5801 SPRINGFIELD AVE,19143,,39.936665264,7 Business Days
0101000020E6100000C598CB7861CB52C026D6D271EFF94340,-75.177824208,3732922,11901212,Closed,,Illegal Dumping,SR-ST02,Streets Department,0101000020110F0000D74B0A479DEC5FC121C807E02C895241,2018-04-04 11:43:19,2018-04-10 06:31:12,2018-04-10 20:00:00,2221 CHESTNUT ST,,https://d17aqltn7cihbm.cloudfront.net/uploads/large_433f54befc026e62bd0077fba225d390,39.952619772,5 Business Days
,,3472819,11818950,Closed,Question Answered,Information Request,SR-IR01,Department of Records,,2018-02-13 12:02:13,2018-02-13 12:02:26,2018-02-13 12:30:15,,,,,
0101000020E6100000947210D79ECB52C040CEC9C577F84340,-75.181569826,3732923,11897919,Closed,,Rubbish/Recyclable Material Collection,SR-ST03,Streets Department,0101000020110F00006A4F838405ED5FC1E09292B28C875241,2018-04-02 17:14:38,2018-04-10 06:31:13,2018-04-04 20:00:00,933 S BONSALL ST,,,39.941155174,2 Business Days
0101000020E61000000E96FB2EF6CB52C06D82DA3542FF4340,-75.186900846,198,10871487,Closed,Issue Resolved,Abandoned Vehicle,SR-PD01,Police Department,0101000020110F000023A615E199ED5FC161F08B29138F5241,2016-08-04 10:33:32,2017-06-15 15:15:20,2016-09-19 20:00:00,3347 RIDGE AVE,,,39.994208083,30 Business Days
0101000020E6100000B266438212CB52C01EF495D52EFA4340,-75.173004694,3732924,11902303,Closed,,Illegal Dumping,SR-ST02,Streets Department,0101000020110F00006A999F2617EC5FC19AB0411B73895241,2018-04-04 16:58:47,2018-04-10 06:31:14,2018-04-11 20:00:00,JOHN F KENNEDY BLVD & N 20TH ST,,https://d17aqltn7cihbm.cloudfront.net/uploads/large_8d63cd2136331279ecc6194301629c91,39.95455427,5 Business Days
0101000020E6100000FA43756B80C252C0FE68D53AB3034440,-75.039088122,200,8997403,Closed,Issue Resolved,Abandoned Vehicle,SR-PD01,Police Department,0101000020110F00005423104588DD5FC140A03EF8FF935241,2015-02-01 12:45:08,2015-08-12 03:47:32,2015-03-12 20:00:00,7104 MARSDEN ST,,,40.028907161,30 Business Days
,,203,11363460,Closed,,Information Request,SR-IR01,Streets Department,,2017-06-08 16:30:26,2017-06-08 16:30:33,2017-06-08 17:00:12,,,,,
0101000020E61000003892BA5370C252C066751F3E38054440,-75.038105897,164,9059973,Closed,,Street Light Outage,SR-ST04,Streets Department,0101000020110F00003ECE49EF6CDD5FC149EB597BAF955241,2015-03-09 08:45:16,2017-05-31 21:04:29,2015-03-23 20:00:00,3414 SHELMIRE AVE,,,40.040778888,10 Business Days
,,3467981,11816732,Closed,Question Answered,Information Request,SR-IR01,First Judicial District/Courts,,2018-02-12 13:00:05,2018-02-12 13:00:25,2018-02-12 13:30:08,,,,,
0101000020E6100000B2B0D09CEFC652C054A4CA498BFE4340,-75.108374785,165,8997300,Closed,Issue Resolved,Abandoned Vehicle,SR-PD01,Police Department,0101000020110F00008ABA4C8210E55FC11C749A62488E5241,2015-01-31 14:15:10,2015-08-12 03:47:17,2015-03-12 20:00:00,3144 AGATE ST,,https://d21tc4b3k3r3vo.cloudfront.net/uploads/27412/requests/54cd282ed6307-369.jpg,39.988625745,30 Business Days
0101000020E610000030BBE5F2B8C252C04DA4B06223044440,-75.042538376,3464104,11806035,Closed,,Illegal Dumping,SR-ST02,Streets Department,0101000020110F00005D4B424AE8DD5FC19317DF5E7C945241,2018-02-05 10:03:05,2018-02-10 07:15:43,2018-02-11 19:00:00,PRINCETON AVE & WALKER ST,,https://d17aqltn7cihbm.cloudfront.net/uploads/large_d02379cdf79c6a33e93339092d30b02f,40.032329879,5 Business Days
0101000020E61000001F97DD38CECA52C00345C9379D064440,-75.168836802,3464105,11807111,Closed,,Illegal Dumping,SR-ST02,Streets Department,0101000020110F000040D7B528A3EB5FC1DC7ABC853B975241,2018-02-05 15:02:33,2018-02-10 07:15:44,2018-02-12 19:00:00,6125 BOYER ST,,https://d17aqltn7cihbm.cloudfront.net/uploads/large_5d8fc7776852fe3e65834aea10d81c47,40.051672907,5 Business Days
0101000020E61000000E92D3111FC652C017E8039781024440,-75.095646343,110,8997242,Closed,Issue Resolved,Abandoned Vehicle,SR-PD01,Police Department,0101000020110F000009882047AEE35FC13955D9FDAC925241,2015-01-30 20:45:21,2015-08-12 03:47:08,2015-03-12 20:00:00,900 ORTHODOX ST,,,40.019579769,30 Business Days
0101000020E6100000E4B3869C48CB52C07395B403AAF44340,-75.176306848,111,8997243,Closed,Issue Resolved,Abandoned Vehicle,SR-PD01,Police Department,0101000020110F00006B4EB00C73EC5FC10253914556835241,2015-01-30 20:45:25,2015-08-12 03:47:08,2015-03-12 20:00:00,1620 CROATAN PL,,,39.911438431,30 Business Days
0101000020E61000007D98F71785CD52C0D76474DD67FA4340,-75.211248386,50,8967080,Closed,Issue Resolved,Graffiti Removal,SR-CL01,Community Life Improvement Program,0101000020110F00003456DA773FF05FC1DC4F534BB2895241,2015-01-11 17:45:10,2015-08-12 03:47:06,2015-01-19 19:00:00,4439 IONIC ST,19104,https://d21tc4b3k3r3vo.cloudfront.net/uploads/27412/requests/54b2f96243ca8-369.jpg,39.956294709,7 Business Days
0101000020E610000054988C9D8FCD52C0A118D5F922FA4340,-75.211890592,51,8967081,Closed,Issue Resolved,Graffiti Removal,SR-CL01,Community Life Improvement Program,0101000020110F00000F4A2C5751F05FC10BBFD0F765895241,2015-01-11 17:45:14,2015-08-12 03:47:06,2015-01-19 19:00:00,229 S 45TH ST,19104,https://d21tc4b3k3r3vo.cloudfront.net/uploads/27412/requests/54b2fa5beaebc-369.jpg,39.954192378,7 Business Days
0101000020E6100000B8FD971098C952C0EEE5C271AE084440,-75.149906299,55,8997258,Closed,,Vacant House or Commercial,SR-LI27,License & Inspections,0101000020110F00009DCD5B5394E95FC18BE9E7C786995241,2015-01-30 22:45:12,2015-08-12 03:47:10,2015-02-26 19:00:00,1986 STERLING ST,,,40.067823624,20 Business Days
0101000020E61000006794366E14C252C0DDD28B56C5054440,-75.032496978,58,8997261,Closed,Question Answered,Information Request,SR-IR01,Philly311 Contact Center,0101000020110F0000EC2DD5D6D0DC5FC11E53A6024C965241,2015-01-31 06:45:06,2015-08-12 03:47:10,,3300 DECATUR ST,,,40.045084775,None
0101000020E610000076DB4B3BB1CA52C0A383601B92F84340,-75.167067357,137,8997338,Closed,,Vacant House or Commercial,SR-LI27,License & Inspections,0101000020110F000043976DEA71EB5FC108DF77DEA9875241,2015-01-31 18:45:06,2015-08-12 03:47:22,2015-02-26 19:00:00,1425 FITZWATER ST,,,39.941958833,20 Business Days
0101000020E610000096E3FCEA7DC352C0CDBF86759D054440,-75.054560417,62,8997268,Closed,Repair Completed,Graffiti Removal,SR-CL01,Community Life Improvement Program,0101000020110F00001A95A6DC36DF5FC1C543B4C41F965241,2015-01-31 08:45:22,2015-08-12 03:47:10,2015-02-09 19:00:00,7279 E ROOSEVELT BLVD,,,40.04386777,7 Business Days
0101000020E6100000097DFA1928C352C0EF803ED343054440,-75.049322599,63,8997265,Closed,Repair Completed,Graffiti Removal,SR-CL01,Community Life Improvement Program,0101000020110F0000FDDB1318A5DE5FC1593CB454BC955241,2015-01-31 08:45:07,2015-08-12 03:47:10,2015-02-09 19:00:00,7280 HAWTHORNE ST,,,40.041132364,7 Business Days
0101000020E610000060F8F33316C352C0FE746EA061054440,-75.048230162,64,8997266,Closed,Repair Completed,Graffiti Removal,SR-CL01,Community Life Improvement Program,0101000020110F0000CAD60BB186DE5FC1BCB83564DD955241,2015-01-31 08:45:12,2015-08-12 03:47:10,2015-02-09 19:00:00,3100 TEESDALE ST,,,40.042041833,7 Business Days
0101000020E6100000938601E803C352C0DE8022584D054440,-75.04711342,65,8997267,Closed,Information Provided,Graffiti Removal,SR-CL01,Community Life Improvement Program,0101000020110F0000650EE49C67DE5FC1F1E613E4C6955241,2015-01-31 08:45:16,2015-08-12 03:47:12,2015-02-09 19:00:00,3126 TEESDALE ST,,,40.041422863,7 Business Days
0101000020E6100000DB15FA6019C252C049F3C7B436034440,-75.032799,66,8997269,Closed,Information Provided,Graffiti Removal,SR-CL01,Community Life Improvement Program,0101000020110F00004DEF8E3ED9DC5FC1576F9BDB75935241,2015-01-31 08:45:26,2015-08-12 03:47:18,2015-02-09 19:00:00,"7201-7257 Pennsylvania 73, Philadelphia, PA 19135, USA",,,40.025107,7 Business Days
0101000020E610000018080264E8C252C095F0845E7F024440,-75.045434,67,8997270,Closed,Referred to another organization,Graffiti Removal,SR-CL01,Community Life Improvement Program,0101000020110F0000408DF3DF38DE5FC170016387AA925241,2015-01-31 08:45:29,2015-08-12 03:47:18,2015-02-09 19:00:00,"Interstate 95, Philadelphia, PA 19135, USA",,,40.019512,7 Business Days
0101000020E6100000A59F70766BCC52C04DF910548DF64340,-75.194059,68,8997271,Closed,Question Answered,Information Request,SR-IR01,Philly311 Contact Center,0101000020110F0000FFA2F21661EE5FC12CF04E7A6D855241,2015-01-31 09:15:07,2015-08-12 03:47:18,,2801?2875 Vare Ave,,,39.926188,None
,,71,11348782,Closed,Question Answered,Information Request,SR-IR01,Register of Wills/ Orphans Court,,2017-05-31 16:30:43,2017-05-31 16:31:01,2017-05-31 17:00:12,,,,,
,,72,11348783,Closed,Information Provided,Directory Assistance,,Directory Assistance,,2017-05-31 16:30:50,2017-05-31 16:31:05,2017-05-31 17:00:12,,,,,
0101000020E61000007D98F71785CD52C0D76474DD67FA4340,-75.211248386,73,8967083,Closed,Issue Resolved,Graffiti Removal,SR-CL01,Community Life Improvement Program,0101000020110F00003456DA773FF05FC1DC4F534BB2895241,2015-01-11 17:45:22,2015-08-12 03:47:06,2015-01-19 19:00:00,4439 IONIC ST,19104,https://d21tc4b3k3r3vo.cloudfront.net/uploads/27412/requests/54b2fbc56c553-369.jpg,39.956294709,7 Business Days
0101000020E6100000EC66674D43CF52C036779195A1FB4340,-75.238482811,2,8967058,Closed,Issue Resolved,Abandoned Vehicle,SR-PD01,Police Department,0101000020110F00001CC20B6635F35FC1CF3B49E90D8B5241,2015-01-11 13:45:05,2015-08-12 03:47:02,2015-02-19 19:00:00,5915 SUMMER ST,,https://d21tc4b3k3r3vo.cloudfront.net/uploads/27412/requests/54b2bfb13abc9-369.jpg,39.965868655,30 Business Days
0101000020E61000009946B4991ACE52C0D77734C4E7F94340,-75.220373565,3,8967059,Closed,Issue Resolved,Graffiti Removal,SR-CL01,Community Life Improvement Program,0101000020110F0000538BA56B3DF15FC153004C5E24895241,2015-01-11 14:15:07,2015-08-12 03:47:03,2015-01-19 19:00:00,413 S 49TH ST,19143,https://d21tc4b3k3r3vo.cloudfront.net/uploads/27412/requests/54b2c4e62b4cb-369.jpg,39.952385453,7 Business Days
0101000020E61000004967A200F8CD52C0685BAC2CFAF94340,-75.218261875,4,8967064,Closed,Information Provided,Graffiti Removal,SR-CL01,Community Life Improvement Program,0101000020110F0000BDB505A702F15FC1D5E54FC338895241,2015-01-11 14:45:21,2015-08-12 03:47:02,2015-01-19 19:00:00,309 S 48TH ST,,https://d21tc4b3k3r3vo.cloudfront.net/uploads/27412/requests/54b2cdc8961c7-369.jpg,39.952947219,7 Business Days
0101000020E61000004967A200F8CD52C0685BAC2CFAF94340,-75.218261875,5,8967063,Closed,Issue Resolved,Graffiti Removal,SR-CL01,Community Life Improvement Program,0101000020110F0000BDB505A702F15FC1D5E54FC338895241,2015-01-11 14:45:17,2015-08-12 03:47:03,2015-01-19 19:00:00,309 S 48TH ST,19143,https://d21tc4b3k3r3vo.cloudfront.net/uploads/27412/requests/54b2cdbdd95cf-369.jpg,39.952947219,7 Business Days
0101000020E61000004967A200F8CD52C0685BAC2CFAF94340,-75.218261875,6,8967060,Closed,Issue Resolved,Graffiti Removal,SR-CL01,Community Life Improvement Program,0101000020110F0000BDB505A702F15FC1D5E54FC338895241,2015-01-11 14:45:06,2015-08-12 03:47:03,2015-01-19 19:00:00,309 S 48TH ST,19143,https://d21tc4b3k3r3vo.cloudfront.net/uploads/27412/requests/54b2cd8f48069-369.jpg,39.952947219,7 Business Days
0101000020E61000004967A200F8CD52C0685BAC2CFAF94340,-75.218261875,7,8967061,Closed,Information Provided,Graffiti Removal,SR-CL01,Community Life Improvement Program,0101000020110F0000BDB505A702F15FC1D5E54FC338895241,2015-01-11 14:45:10,2015-08-12 03:47:03,2015-01-19 19:00:00,309 S 48TH ST,,https://d21tc4b3k3r3vo.cloudfront.net/uploads/27412/requests/54b2cd9f831d4-369.jpg,39.952947219,7 Business Days
0101000020E6100000C0594A9693CB52C0516B9A779CF84340,-75.180883,42,8967050,Closed,Question Answered,Information Request,SR-IR01,Philly311 Contact Center,0101000020110F0000178D3A67F2EC5FC1A3F27458B5875241,2015-01-11 12:15:14,2016-06-01 14:57:50,,817?835 S 23rd St,,https://d21tc4b3k3r3vo.cloudfront.net/uploads/27412/requests/54b2a8b90a669-369.jpg,39.942275,None
0101000020E61000005EE6A6930DCF52C0E662C21EC9FC4340,-75.235203662,43,8967051,Closed,Issue Resolved,Graffiti Removal,SR-CL01,Community Life Improvement Program,0101000020110F00004009EA23DAF25FC196CEC06C558C5241,2015-01-11 12:15:18,2015-08-12 03:47:02,2015-01-19 19:00:00,5700 MEDIA ST,19131,,39.974887697,7 Business Days
0101000020E610000096E3FCEA7DC352C0CDBF86759D054440,-75.054560417,45,8967054,Closed,Repair Completed,Graffiti Removal,SR-CL01,Community Life Improvement Program,0101000020110F00001A95A6DC36DF5FC1C543B4C41F965241,2015-01-11 12:45:06,2015-08-12 03:47:02,2015-01-19 19:00:00,7279 E ROOSEVELT BLVD,,https://d21tc4b3k3r3vo.cloudfront.net/uploads/27412/requests/54b2b088101f6-369.jpg,40.04386777,7 Business Days
0101000020E61000002122D2C227C852C0FAFFC40A2FFE4340,-75.127426824,47,8967075,Closed,Repair Completed,Graffiti Removal,SR-CL01,Community Life Improvement Program,0101000020110F0000584B7CB922E75FC14AF6EE21E28D5241,2015-01-11 16:45:12,2015-08-12 03:47:11,2015-01-19 19:00:00,2510 EMERALD ST,,https://d21tc4b3k3r3vo.cloudfront.net/uploads/27412/requests/54b2ead3e9ad1-369.jpg,39.985810607,7 Business Days
0101000020E6100000FAC7CE1D75CD52C0228237C55F044440,-75.210273223,314,8997450,Closed,Issue Resolved,Abandoned Vehicle,SR-PD01,Police Department,0101000020110F000003354E5424F05FC1D8D4D359BF945241,2015-02-01 19:45:20,2015-08-12 03:47:40,2015-03-12 20:00:00,626 PARK TER,,,40.034172683,30 Business Days
0101000020E6100000FC116D64EACD52C0CAD922060DFA4340,-75.217431167,48,8967082,Closed,Issue Resolved,Graffiti Removal,SR-CL01,Community Life Improvement Program,0101000020110F0000506CBE88EBF05FC11F658FA54D895241,2015-01-11 17:45:18,2015-08-12 03:47:11,2015-01-19 19:00:00,4744 SPRUCE ST,19143,https://d21tc4b3k3r3vo.cloudfront.net/uploads/27412/requests/54b2faf637565-369.jpg,39.953522457,7 Business Days
0101000020E6100000DA709A364AC652C008780C6E6FFE4340,-75.098279616,49,8967079,Closed,Issue Resolved,Abandoned Vehicle,SR-PD01,Police Department,0101000020110F000078BDCA8FF7E35FC12CE22081298E5241,2015-01-11 17:45:06,2015-08-12 03:47:05,2015-02-19 19:00:00,3417 MERCER ST,,https://d21tc4b3k3r3vo.cloudfront.net/uploads/27412/requests/54b2f63adb3d5-369.jpg,39.987775571,30 Business Days
0101000020E61000004967A200F8CD52C0685BAC2CFAF94340,-75.218261875,9,8967062,Closed,Information Provided,Graffiti Removal,SR-CL01,Community Life Improvement Program,0101000020110F0000BDB505A702F15FC1D5E54FC338895241,2015-01-11 14:45:14,2015-08-12 03:47:03,2015-01-19 19:00:00,309 S 48TH ST,,https://d21tc4b3k3r3vo.cloudfront.net/uploads/27412/requests/54b2cdaf8be73-369.jpg,39.952947219,7 Business Days
0101000020E61000004967A200F8CD52C0685BAC2CFAF94340,-75.218261875,10,8967065,Closed,Information Provided,Graffiti Removal,SR-CL01,Community Life Improvement Program,0101000020110F0000BDB505A702F15FC1D5E54FC338895241,2015-01-11 14:45:25,2015-08-12 03:47:02,2015-01-19 19:00:00,309 S 48TH ST,,https://d21tc4b3k3r3vo.cloudfront.net/uploads/27412/requests/54b2cdd513c90-369.jpg,39.952947219,7 Business Days
0101000020E6100000E9D8BDEC89CF52C0E4CFBF7693FD4340,-75.242793262,11,8967066,Closed,Issue Resolved,Graffiti Removal,SR-CL01,Community Life Improvement Program,0101000020110F00002DCA9E5BADF35FC1208BFFAF358D5241,2015-01-11 14:45:29,2015-08-12 03:47:03,2015-01-19 19:00:00,W COLUMBIA AVE & N 61ST ST,19151,,39.981062743,7 Business Days
0101000020E61000002456D2CC4BC952C027ADF0157AFF4340,-75.145251467,13,8967070,Closed,Repair Completed,Graffiti Removal,SR-CL01,Community Life Improvement Program,0101000020110F0000615E44C812E95FC1653D181B518F5241,2015-01-11 15:45:06,2015-08-12 03:47:11,2015-01-19 19:00:00,827 W CAMBRIA ST,,,39.995913262,7 Business Days
0101000020E61000009E67E4DA6DC352C00D420E8443084440,-75.053580018,14,8967071,Closed,Repair Completed,Graffiti Removal,SR-CL01,Community Life Improvement Program,0101000020110F000030ACD7931BDF5FC16524AE1D10995241,2015-01-11 15:45:11,2015-08-12 03:47:11,2015-01-19 19:00:00,8200 CASTOR AVE,,,40.064560416,7 Business Days
0101000020E6100000E8BCC62E91CF52C0DB9C3169DFFD4340,-75.243236248,15,8967072,Closed,Issue Resolved,Graffiti Removal,SR-CL01,Community Life Improvement Program,0101000020110F000013E2ADAFB9F35FC17985E4DD898D5241,2015-01-11 16:15:06,2015-08-12 03:47:10,2015-01-19 19:00:00,N 61ST ST & LANCASTER AVE,19151,https://d21tc4b3k3r3vo.cloudfront.net/uploads/27412/requests/54b2e4354d8cd-369.jpg,39.983380464,7 Business Days
,,3472822,11818929,Closed,Question Answered,Information Request,SR-IR01,Department of Records,,2018-02-13 11:55:52,2018-02-13 12:03:26,2018-02-13 12:30:15,,,,,
,,17,11355575,Closed,Question Answered,Information Request,SR-IR01,Department of Public Health,,2017-06-05 12:10:51,2017-06-05 12:11:32,2017-06-05 12:30:14,,,,,
,,3472823,11818956,Closed,Question Answered,Information Request,SR-IR01,Prisons,,2018-02-13 12:03:23,2018-02-13 12:03:37,2018-02-13 12:30:15,,,,,
,,3472824,11818957,Closed,Question Answered,Information Request,SR-IR01,Behavioral Health and Intellectual Disability Services- DBHIDS,,2018-02-13 12:03:29,2018-02-13 12:03:41,2018-02-13 12:30:15,,,,,
0101000020E6100000AEB607C6E6CA52C0C4F9E5DD22094440,-75.170335297,3463546,11811251,Closed,,LI Escalation,,License & Inspections,0101000020110F0000D8DBB1DCCCEB5FC198FAFAFC079A5241,2018-02-07 14:59:02,2018-02-09 18:31:54,2018-02-09 19:00:39,8019 GILBERT ST,,,40.071376555,3 Business Days
,,3463547,11814729,Closed,Question Answered,Information Request,SR-IR01,Philly311 Contact Center,,2018-02-09 18:33:46,2018-02-09 18:34:06,2018-02-09 19:00:39,,,,,
,,21,11355583,Closed,Question Answered,Information Request,SR-IR01,Sheriff's Department,,2017-06-05 12:11:32,2017-06-05 12:11:43,2017-06-05 12:30:14,,,,,
0101000020E61000009EB76FBD3FC352C0ABDA03E76B064440,-75.050765376,22,8967035,Closed,Repair Completed,Graffiti Removal,SR-CL01,Community Life Improvement Program,0101000020110F0000C67A163FCDDE5FC176096BCE04975241,2015-01-11 08:15:18,2015-08-12 03:46:59,2015-01-19 19:00:00,7621 E ROOSEVELT BLVD,,,40.050167919,7 Business Days
0101000020E61000008F3F285A7FC352C00EFEFAF8B6054440,-75.054647958,23,8967034,Closed,Repair Completed,Graffiti Removal,SR-CL01,Community Life Improvement Program,0101000020110F0000A628534C39DF5FC108B7B6123C965241,2015-01-11 08:15:14,2015-08-12 03:46:59,2015-01-19 19:00:00,COTTMAN AVE & E ROOSEVELT BLVD,,,40.04464638,7 Business Days
0101000020E610000023999B9052C352C0F82F732E83054440,-75.051914362,24,8967033,Closed,Repair Completed,Graffiti Removal,SR-CL01,Community Life Improvement Program,0101000020110F00002B76EF38EDDE5FC18DDAC19D02965241,2015-01-11 08:15:07,2015-08-12 03:46:59,2015-01-19 19:00:00,2900 COTTMAN AVE,,,40.043065838,7 Business Days
,,26,11379516,Closed,Question Answered,Information Request,SR-IR01,Philly311 Contact Center,,2017-06-19 08:40:56,2017-06-19 08:41:32,2017-06-19 09:00:12,,,,,
,,27,11358183,Closed,Question Answered,Information Request,SR-IR01,Philly311 Contact Center,,2017-06-06 13:36:09,2017-06-06 13:36:27,2017-06-06 14:00:12,,,,,
0101000020E6100000FC611955E5CD52C09372B51D6CF94340,-75.217122341,28,8967040,Closed,Issue Resolved,Graffiti Removal,SR-CL01,Community Life Improvement Program,0101000020110F0000EB3080F0E2F05FC1D642E9609B885241,2015-01-11 10:15:06,2015-08-12 03:46:59,2015-01-19 19:00:00,BALTIMORE AVE & S 47TH ST,19143,,39.948611937,7 Business Days
,,29,11358182,Closed,Question Answered,Information Request,SR-IR01,Water Revenue,,2017-06-06 13:35:59,2017-06-06 13:36:35,2017-06-06 14:00:12,,,,,
0101000020E61000006071BC2B50CB52C06CE2CBE166FA4340,-75.176768239,30,8967044,Closed,Issue Resolved,Graffiti Removal,SR-CL01,Community Life Improvement Program,0101000020110F00009365D6E37FEC5FC1F5A57E34B1895241,2015-01-11 10:45:14,2015-08-12 03:46:59,2015-01-19 19:00:00,100 N CROSKEY ST,19103,,39.95626471,7 Business Days
0101000020E610000033F0AB8B3ECE52C008FD8ED940F94340,-75.222567477,31,8967042,Closed,Issue Resolved,Graffiti Removal,SR-CL01,Community Life Improvement Program,0101000020110F00001E441D7A7AF15FC1586652726B885241,2015-01-11 10:45:05,2015-08-12 03:47:02,2015-01-19 19:00:00,708 S 50TH ST,19143,,39.947291562,7 Business Days
0101000020E610000052D4786DDFC252C00E984DA16F044440,-75.044886941,253,8997391,Closed,Repair Completed,Graffiti Removal,SR-CL01,Community Life Improvement Program,0101000020110F00001A8073A629DE5FC1BE2E72F1D0945241,2015-02-01 11:15:19,2015-08-12 03:47:31,2015-02-09 19:00:00,7057 FRANKFORD AVE,,https://d21tc4b3k3r3vo.cloudfront.net/uploads/27412/requests/54ce4f8744378-369.jpg,40.034656679,7 Business Days
0101000020E6100000B6D2CEDD6CC252C0DF8DE476D8044440,-75.037894677,254,8997392,Closed,Repair Completed,Graffiti Removal,SR-CL01,Community Life Improvement Program,0101000020110F0000C767760E67DD5FC18F46A23B45955241,2015-02-01 11:15:23,2015-08-12 03:47:31,2015-02-09 19:00:00,7400 FRANKFORD AVE,,https://d21tc4b3k3r3vo.cloudfront.net/uploads/27412/requests/54ce4fdf1de49-369.jpg,40.037855966,7 Business Days
,,328,9256853,Closed,,Information Request,SR-IR01,Streets Department,,2015-06-30 15:57:22,2017-05-31 21:06:14,2017-05-31 21:30:25,,,,,None
,,329,8997506,Closed,Question Answered,Information Request,SR-IR01,Department of Records,,2015-02-02 08:13:18,2015-02-02 08:13:26,,,,,,None
,,330,8997507,Closed,Question Answered,Information Request,SR-IR01,Philly311,,2015-02-02 08:13:30,2015-02-02 08:14:09,,,,,,None
0101000020E6100000C6924978C8CB52C029F5D9BFBAF64340,-75.184110706,331,9351734,Closed,,Illegal Dumping,SR-ST02,Streets Department,0101000020110F000077FDE03A4CED5FC158F60DC89F855241,2015-08-24 14:56:11,2017-05-31 21:06:14,2015-08-31 20:00:00,1953 S 23RD ST,19145,,39.927574144,5 Business Days
,,332,8997509,Closed,Question Answered,Information Request,SR-IR01,Office of the Director of Finance,,2015-02-02 08:14:16,2015-02-02 08:15:51,,,,,,None
,,334,8997511,Closed,Question Answered,Information Request,SR-IR01,Philly311 Contact Center,,2015-02-02 08:14:27,2015-02-02 08:14:28,,,UNKNOWN,,,None
,,335,8997512,Closed,Question Answered,Information Request,SR-IR01,Philly311 Contact Center,,2015-02-02 08:14:31,2015-02-02 08:14:31,,,,,,None
,,336,8997513,Closed,Question Answered,Information Request,SR-IR01,,,2015-02-02 08:15:04,2015-03-24 12:22:33,,,,,,None
,,337,8997514,Closed,Question Answered,Information Request,SR-IR01,State/Federal Government Offices,,2015-02-02 08:15:11,2015-02-02 08:15:44,,,,,,None
,,339,8997517,Closed,Question Answered,Information Request,SR-IR01,First Judicial District/Courts,,2015-02-02 08:15:21,2015-02-02 08:15:48,,,19145,,,None
,,340,8997519,Closed,Question Answered,Information Request,SR-IR01,Philly311 Contact Center,,2015-02-02 08:16:43,2015-02-02 08:16:44,,,,,,None
,,341,8997520,Closed,Question Answered,Information Request,SR-IR01,Philly311 Contact Center,,2015-02-02 08:16:52,2015-02-02 08:16:52,,,,,,None
,,342,8997521,Closed,Question Answered,Information Request,SR-IR01,Philly311 Contact Center,,2015-02-02 08:17:15,2015-02-02 08:17:15,,,,,,None
,,343,8997523,Closed,Question Answered,Information Request,SR-IR01,State/Federal Government Offices,,2015-02-02 08:19:02,2015-02-02 08:19:44,,,,,,None
0101000020E6100000A0658286A3C952C0C215B3D2E2024440,-75.150605804,319,9004899,Closed,,Rubbish/Recyclable Material Collection,SR-ST03,Streets Department,0101000020110F000093D9E8CAA7E95FC1026559D318935241,2015-02-05 08:26:45,2017-05-31 21:06:14,2015-02-08 19:00:00,4532 N HICKS ST,,,40.022547087,2 Business Days
,,3467983,11816702,Closed,Question Answered,Information Request,SR-IR01,City Council,,2018-02-12 12:54:51,2018-02-12 13:00:27,2018-02-12 13:30:08,,,,,
,,320,9004900,Closed,,Information Request,SR-IR01,Streets Department,,2015-02-05 08:26:56,2017-05-31 21:06:14,2017-05-31 21:30:25,,19146,,,None
0101000020E61000005D1BC79B7EC952C0C9D9A63E31004440,-75.148352566,321,8997469,Closed,,Information Request,SR-IR01,License & Inspections,0101000020110F00000714E41569E95FC11FFCD12A1C905241,2015-02-02 00:45:06,2015-08-12 03:47:39,,3209 GERMANTOWN AVE,,,40.001502832,None
,,406,8997566,Closed,,Information Request,SR-IR01,Licenses & Inspections- L&I,,2015-02-02 08:33:42,2015-02-02 08:34:06,,,19134,,,None
,,407,8997567,Closed,Question Answered,Information Request,SR-IR01,Register of Wills/ Orphans Court,,2015-02-02 08:35:00,2015-02-02 08:35:12,,,,,,None
,,408,8997568,Closed,Question Answered,Information Request,SR-IR01,Police Department,,2015-02-02 08:35:13,2015-02-02 08:35:13,,,unknown,,,None
,,409,8997569,Closed,Question Answered,Information Request,SR-IR01,Philly311 Contact Center,,2015-02-02 08:35:20,2015-02-02 08:35:32,,,,,,None
,,410,8997571,Closed,Question Answered,Information Request,SR-IR01,Board of Revision of Taxes- BRT,,2015-02-02 08:36:07,2015-03-24 12:22:54,,,,,,None
,,411,8997573,Closed,Question Answered,Information Request,SR-IR01,Police Department,,2015-02-02 08:36:36,2015-02-02 08:37:10,,,08085,,,None
0101000020E6100000697761CE60CB52C0695D5958A6054440,-75.177783581,3464106,11803372,Closed,,Rubbish/Recyclable Material Collection,SR-ST03,Streets Department,0101000020110F000085EC92259CEC5FC1565B63A029965241,2018-02-02 08:06:06,2018-02-10 07:15:46,2018-02-05 19:00:00,116 E TULPEHOCKEN ST,,,40.04413895,2 Business Days
0101000020E6100000697761CE60CB52C0695D5958A6054440,-75.177783581,3464107,11806416,Closed,,Rubbish/Recyclable Material Collection,SR-ST03,Streets Department,0101000020110F000085EC92259CEC5FC1565B63A029965241,2018-02-05 11:47:18,2018-02-10 07:15:46,2018-02-06 19:00:00,116 E TULPEHOCKEN ST,,,40.04413895,2 Business Days
0101000020E610000007BE37C06BCB52C001050FBA21064440,-75.178451585,3464108,11810387,Closed,,Illegal Dumping,SR-ST02,Streets Department,0101000020110F000050AAC6BCAEEC5FC1AD128D82B2965241,2018-02-07 10:49:38,2018-02-10 07:15:47,2018-02-13 19:00:00,CARNATION ST & E DUVAL ST,19141,,40.047904258,5 Business Days
0101000020E6100000E4DB9AF8D3CD52C0B5A1A4B811FA4340,-75.216062688,190,8997348,Closed,Issue Resolved,Graffiti Removal,SR-CL01,Community Life Improvement Program,0101000020110F0000FF7D1473C5F05FC1319BDAD952895241,2015-01-31 21:45:11,2015-08-12 03:47:25,2015-02-09 19:00:00,241 S 47TH ST,19139,https://d21tc4b3k3r3vo.cloudfront.net/uploads/27412/requests/54cd91c8dbd62-369.jpg,39.953665806,7 Business Days
0101000020E6100000D6E39DC7D1CD52C00578A08824FA4340,-75.215928943,191,8997349,Closed,Issue Resolved,Graffiti Removal,SR-CL01,Community Life Improvement Program,0101000020110F0000AE692FBAC1F05FC141E4A7B167895241,2015-01-31 21:45:15,2015-08-12 03:47:25,2015-02-09 19:00:00,241 S 47TH ST,19139,https://d21tc4b3k3r3vo.cloudfront.net/uploads/27412/requests/54cd92922f260-369.jpg,39.95423992,7 Business Days
0101000020E61000007BF1EAC1C9CD52C0CD6A68A005FA4340,-75.215439299,192,8997350,Closed,Issue Resolved,Graffiti Removal,SR-CL01,Community Life Improvement Program,0101000020110F00009651C519B4F05FC13871727345895241,2015-01-31 21:45:18,2015-08-12 03:47:25,2015-02-09 19:00:00,4639 SPRUCE ST,19139,https://d21tc4b3k3r3vo.cloudfront.net/uploads/27412/requests/54cd932324f77-369.jpg,39.953296711,7 Business Days
0101000020E61000007BF1EAC1C9CD52C0CD6A68A005FA4340,-75.215439299,193,8997351,Closed,Issue Resolved,Graffiti Removal,SR-CL01,Community Life Improvement Program,0101000020110F00009651C519B4F05FC13871727345895241,2015-01-31 22:15:05,2015-08-12 03:47:25,2015-02-09 19:00:00,4639 SPRUCE ST,19139,https://d21tc4b3k3r3vo.cloudfront.net/uploads/27412/requests/54cd940ec8f29-369.jpg,39.953296711,7 Business Days
0101000020E61000009E12293051CE52C0055F661254F94340,-75.223705334,144,8997279,Closed,Issue Resolved,Graffiti Removal,SR-CL01,Community Life Improvement Program,0101000020110F0000DCB3AA249AF15FC1B7AFCABD80885241,2015-01-31 11:14:57,2015-04-29 12:40:58,2015-02-09 19:00:00,5008 BALTIMORE AVE,19143,,39.94787817,7 Business Days
0101000020E61000005810148913C352C0691350766D054440,-75.048067346,146,8997282,Closed,Repair Completed,Graffiti Removal,SR-CL01,Community Life Improvement Program,0101000020110F00003A6E1D2982DE5FC1FB707785EA955241,2015-01-31 11:45:10,2015-08-12 03:47:14,2015-02-09 19:00:00,7359 HAWTHORNE ST,,https://d21tc4b3k3r3vo.cloudfront.net/uploads/27412/requests/54cd02f29c163-369.jpg,40.042403017,7 Business Days
,,150,11348708,Closed,Question Answered,Information Request,SR-IR01,Department of Public Health,,2017-05-31 16:02:25,2017-05-31 16:03:22,2017-05-31 16:30:14,,,,,
0101000020E61000008A00A777F1CD52C079E8BB5B59FA4340,-75.217863,151,8997287,Closed,Issue Resolved,Graffiti Removal,SR-CL01,Community Life Improvement Program,0101000020110F000055414B8DF7F05FC18109A238A2895241,2015-01-31 12:15:10,2015-08-12 03:47:17,2015-02-09 19:00:00,"48th St & Walnut St - FS, Philadelphia, PA 19139, USA",19139,https://d21tc4b3k3r3vo.cloudfront.net/uploads/27412/requests/54cd0993b773a-369.jpg,39.955852,7 Business Days
0101000020E61000004B0D0265F2CD52C0DB9BC69330FA4340,-75.217919591,152,8997288,Closed,Issue Resolved,Graffiti Removal,SR-CL01,Community Life Improvement Program,0101000020110F0000E9687720F9F05FC174769C0975895241,2015-01-31 12:15:14,2015-08-12 03:47:15,2015-02-09 19:00:00,237 S 48TH ST,19139,https://d21tc4b3k3r3vo.cloudfront.net/uploads/27412/requests/54cd0aac86164-369.jpg,39.954607457,7 Business Days
,,3266678,11744084,Closed,Question Answered,Information Request,SR-IR01,Philly311 Contact Center,,2017-12-27 10:04:09,2017-12-27 10:04:13,2017-12-27 10:30:11,,,,,
0101000020E610000098CE3DDAAEC052C0C86340D56C064440,-75.010672148,2118394,9385710,Closed,,Maintenance Residential or Commercial,SR-LI21,License & Inspections,0101000020110F000072A9FA7471DA5FC1F5BBBDD605975241,2015-09-15 12:31:06,2017-08-19 13:47:12,2015-10-14 20:00:00,8832 FRANKFORD AVE,19136,,40.050196317,20 Business Days
,,3266679,11744085,Closed,Question Answered,Information Request,SR-IR01,Philadelphia Housing Development Corporation- PHDC,,2017-12-27 10:04:11,2017-12-27 10:04:18,2017-12-27 10:30:11,,,,,
0101000020E61000007E133390E1CD52C0C260489833FA4340,-75.21689229,153,8997289,Closed,Issue Resolved,Graffiti Removal,SR-CL01,Community Life Improvement Program,0101000020110F0000DB888589DCF05FC1AE18826178895241,2015-01-31 12:15:18,2015-08-12 03:47:15,2015-02-09 19:00:00,4750 LOCUST ST,19139,https://d21tc4b3k3r3vo.cloudfront.net/uploads/27412/requests/54cd0b451657f-369.jpg,39.954699554,7 Business Days
0101000020E6100000099C5366D6CD52C0F83F55BF31FA4340,-75.216210923,154,8997290,Closed,Issue Resolved,Graffiti Removal,SR-CL01,Community Life Improvement Program,0101000020110F00000A0B2393C9F05FC1CE30815576895241,2015-01-31 12:15:22,2015-08-12 03:47:15,2015-02-09 19:00:00,4701 LOCUST ST,19139,https://d21tc4b3k3r3vo.cloudfront.net/uploads/27412/requests/54cd0bca18f3a-369.jpg,39.954643168,7 Business Days
0101000020E6100000DE84EFBBF1CD52C01308E00B38FA4340,-75.217879283,155,8997291,Closed,Issue Resolved,Graffiti Removal,SR-CL01,Community Life Improvement Program,0101000020110F000015AC4701F8F05FC13A631E507D895241,2015-01-31 12:15:26,2015-08-12 03:47:15,2015-02-09 19:00:00,S 48TH ST & LOCUST ST,19139,https://d21tc4b3k3r3vo.cloudfront.net/uploads/27412/requests/54cd0c76eed4f-369.jpg,39.9548354,7 Business Days
,,157,11348694,Closed,Question Answered,Information Request,SR-IR01,Revenue,,2017-05-31 15:57:48,2017-05-31 16:01:17,2017-05-31 16:30:14,,,,,
,,158,11348664,Closed,Question Answered,Information Request,SR-IR01,First Judicial District/Courts,,2017-05-31 15:50:56,2017-05-31 16:02:06,2017-05-31 16:30:14,,,,,
,,3266677,11744083,Closed,,Information Request,SR-IR01,License & Inspections,,2017-12-27 10:03:46,2017-12-27 10:03:56,2017-12-27 10:30:11,,,,,
,,3266680,11744086,Closed,Question Answered,Information Request,SR-IR01,Office of Housing & Community Development- OHCD,,2017-12-27 10:04:23,2017-12-27 10:04:28,2017-12-27 10:30:11,,,,,
0101000020E61000006093F3CD4FCA52C031D7BBA288FE4340,-75.161120879,160,8997295,Closed,Issue Resolved,Graffiti Removal,SR-CL01,Community Life Improvement Program,0101000020110F0000DD460B6DCCEA5FC11492DE71458E5241,2015-01-31 13:15:16,2015-08-12 03:47:18,2015-02-09 19:00:00,1702 W DAUPHIN ST,19132,https://d21tc4b3k3r3vo.cloudfront.net/uploads/27412/requests/54cd1715326e5-369.jpg,39.988544791,7 Business Days
0101000020E61000001C8FBEEE59CA52C0B4CF7C3188FE4340,-75.161739051,161,8997296,Closed,Issue Resolved,Graffiti Removal,SR-CL01,Community Life Improvement Program,0101000020110F0000A2E829A1DDEA5FC1BA1B56F4448E5241,2015-01-31 13:15:20,2015-08-12 03:47:18,2015-02-09 19:00:00,2272 N BOUVIER ST,19132,https://d21tc4b3k3r3vo.cloudfront.net/uploads/27412/requests/54cd183094cbe-369.jpg,39.98853129,7 Business Days
0101000020E6100000C853E27C62CA52C03FA639A290FE4340,-75.162261223,162,8997297,Closed,Issue Resolved,Graffiti Removal,SR-CL01,Community Life Improvement Program,0101000020110F0000FF1E5629ECEA5FC16CE7824F4E8E5241,2015-01-31 13:15:24,2015-08-12 03:47:18,2015-02-09 19:00:00,2300 N 18TH ST,19132,https://d21tc4b3k3r3vo.cloudfront.net/uploads/27412/requests/54cd192c16b7a-369.jpg,39.988788865,7 Business Days
,,299,9256857,Closed,,Information Request,SR-IR01,Streets Department,,2015-06-30 15:59:31,2017-05-31 21:06:16,2017-05-31 21:30:25,,,,,None
0101000020E6100000A6B4FE9600CA52C053AEF02E17F94340,-75.156286,163,8997298,Closed,Issue Resolved,Graffiti Removal,SR-CL01,Community Life Improvement Program,0101000020110F0000D71C32DF45EA5FC152D6A6493D885241,2015-01-31 13:45:06,2015-08-12 03:47:20,2015-02-09 19:00:00,NW COR 9th 7 SPRUCE St,19107,https://d21tc4b3k3r3vo.cloudfront.net/uploads/27412/requests/54cd1c305e867-369.jpg,39.94602,7 Business Days
0101000020E610000021ACC612D6CD52C031FC54D3FDF94340,-75.216191004,219,8997355,Closed,Issue Resolved,Graffiti Removal,SR-CL01,Community Life Improvement Program,0101000020110F0000F3C73705C9F05FC12AFBD6CE3C895241,2015-02-01 00:15:06,2015-08-12 03:47:26,2015-02-09 19:00:00,349 S 47TH ST,19143,https://d21tc4b3k3r3vo.cloudfront.net/uploads/27412/requests/54cdaf53cada8-369.jpg,39.953058641,7 Business Days
0101000020E6100000439FFACDE5CD52C03C676E32E8F94340,-75.217151161,220,8997356,Closed,Issue Resolved,Graffiti Removal,SR-CL01,Community Life Improvement Program,0101000020110F00004BCBD3BDE3F05FC16DF46AD824895241,2015-02-01 00:15:11,2015-08-12 03:47:25,2015-02-09 19:00:00,4720 PINE ST,19143,https://d21tc4b3k3r3vo.cloudfront.net/uploads/27412/requests/54cdb001b86d8-369.jpg,39.952398592,7 Business Days
0101000020E6100000DC44B10512CE52C0661DA74BF3F94340,-75.219849986,221,8997357,Closed,Issue Resolved,Graffiti Removal,SR-CL01,Community Life Improvement Program,0101000020110F000011EE7FD92EF15FC168E93E2431895241,2015-02-01 00:15:15,2015-08-12 03:47:25,2015-02-09 19:00:00,4850 PINE ST,19143,https://d21tc4b3k3r3vo.cloudfront.net/uploads/27412/requests/54cdb0d40efd3-369.jpg,39.952737292,7 Business Days
0101000020E6100000608D583016CE52C0FD00BDD311FA4340,-75.220104297,222,8997359,Closed,Issue Resolved,Graffiti Removal,SR-CL01,Community Life Improvement Program,0101000020110F0000006551ED35F15FC17EA1DFF752895241,2015-02-01 00:15:22,2015-08-12 03:47:26,2015-02-09 19:00:00,301 S 49TH ST,19143,https://d21tc4b3k3r3vo.cloudfront.net/uploads/27412/requests/54cdb334a4856-369.jpg,39.953669038,7 Business Days
,,170,9004790,Closed,,Information Request,SR-IR01,Streets Department,,2015-02-04 19:47:47,2017-05-31 21:04:30,2017-05-31 21:30:24,,19143,,,None
,,171,9059981,Closed,,Information Request,SR-IR01,Streets Department,,2015-03-09 08:48:53,2017-05-31 21:04:30,2017-05-31 21:30:24,,19150,,,None
,,174,9156202,Closed,,Information Request,SR-IR01,Streets Department,,2015-05-04 14:16:49,2017-05-31 21:04:30,2017-05-31 21:30:24,,19140,,,None
0101000020E6100000D226DA97A4CA52C04E57E2C7B9F74340,-75.166295966,176,8997311,Closed,Issue Resolved,Abandoned Vehicle,SR-PD01,Police Department,0101000020110F0000965AB3725CEB5FC156AE3F3FBA865241,2015-01-31 16:15:20,2015-08-12 03:47:19,2015-03-12 20:00:00,1200 S JUNIPER ST,,,39.935357078,30 Business Days
,,178,9256640,Closed,,Information Request,SR-IR01,Streets Department,,2015-06-30 15:11:04,2017-05-31 21:04:30,2017-05-31 21:30:24,,Non-Provid,,,None
0101000020E610000041CC4ED40CC252C0CCC5E7674D044440,-75.032033042,179,8997314,Closed,Issue Resolved,Abandoned Vehicle,SR-PD01,Police Department,0101000020110F0000EA3F84EDC3DC5FC1D090F9FAAA945241,2015-01-31 17:15:12,2015-08-12 03:47:19,2015-03-12 20:00:00,4539 SHELMIRE AVE,,,40.033612239,30 Business Days
0101000020E610000018869F6AFACA52C0CAC6FFF451F94340,-75.171534212,183,8997323,Closed,Information Provided,Information Request,SR-IR01,Philly311 Contact Center,0101000020110F0000F918443AEEEB5FC1EA0402667E885241,2015-01-31 17:15:48,2015-08-12 03:47:21,,1808 SPRUCE ST,,https://d21tc4b3k3r3vo.cloudfront.net/uploads/27412/requests/54cd52eaf271b-369.jpg,39.947813634,None
0101000020E610000081A34F713DCA52C0D9D81D39EFF64340,-75.16000016,185,8997319,Closed,Issue Resolved,Graffiti Removal,SR-CL01,Community Life Improvement Program,0101000020110F00007C89883CADEA5FC182C8B0E5D9855241,2015-01-31 17:15:33,2015-08-12 03:47:22,2015-02-09 19:00:00,1601 S 09TH ST,19148,https://d21tc4b3k3r3vo.cloudfront.net/uploads/27412/requests/54cd513a8aa0c-369.jpg,39.929175515,7 Business Days
0101000020E6100000DECE3ABA3CCA52C0BF117A89F3F64340,-75.159956514,186,8997320,Closed,Issue Resolved,Graffiti Removal,SR-CL01,Community Life Improvement Program,0101000020110F0000A61C8D05ACEA5FC1E82ACFACDE855241,2015-01-31 17:15:36,2015-08-12 03:47:22,2015-02-09 19:00:00,1601 S 09TH ST,,https://d21tc4b3k3r3vo.cloudfront.net/uploads/27412/requests/54cd517e1a612-369.jpg,39.929307158,7 Business Days
0101000020E61000007460394206CD52C06DFFCA4A93FA4340,-75.203507,187,8997321,Closed,Issue Resolved,Graffiti Removal,SR-CL01,Community Life Improvement Program,0101000020110F00008518BA0668EF5FC15D8C2A69E2895241,2015-01-31 17:15:40,2015-08-12 03:47:24,2015-02-09 19:00:00,2?14 N Preston St,19104,https://d21tc4b3k3r3vo.cloudfront.net/uploads/27412/requests/54cd51fe12c91-369.jpg,39.95762,7 Business Days
0101000020E6100000D9FB7D94CBCA52C05B5451DD58054440,-75.168675541,3464109,11810892,Closed,,Illegal Dumping,SR-ST02,Streets Department,0101000020110F0000C369D2AB9EEB5FC19ABBC7ABD3955241,2018-02-07 13:13:27,2018-02-10 07:15:48,2018-02-14 19:00:00,501 E CHELTEN AVE,,,40.041774434,5 Business Days
0101000020E6100000E34468C23EC652C00CFDD9B0A2034440,-75.097580531,3464110,11811010,Closed,,Illegal Dumping,SR-ST02,Streets Department,0101000020110F0000B279291BE4E35FC1EB4C21A0ED935241,2018-02-07 13:48:00,2018-02-10 07:15:49,2018-02-14 19:00:00,850 FOULKROD ST,,,40.02840243,5 Business Days
0101000020E610000079D6E21164CA52C0853EDCFEAA054440,-75.162357778,3464111,11814232,Closed,,Illegal Dumping,SR-ST02,Streets Department,0101000020110F0000C3E645D9EEEA5FC1F99B24C92E965241,2018-02-09 14:43:34,2018-02-10 07:15:50,2018-02-18 19:00:00,5545 CHEW AVE,,,40.044280873,5 Business Days
0101000020E610000079D6E21164CA52C0853EDCFEAA054440,-75.162357778,3464112,11811027,Closed,,Illegal Dumping,SR-ST02,Streets Department,0101000020110F0000C3E645D9EEEA5FC1F99B24C92E965241,2018-02-07 13:52:15,2018-02-10 07:15:51,2018-02-14 19:00:00,5545 CHEW AVE,,,40.044280873,5 Business Days
0101000020E6100000D84FD6DA81C952C0F827A72C79054440,-75.148550712,3464113,11811137,Closed,,Rubbish/Recyclable Material Collection,SR-ST03,Streets Department,0101000020110F0000A66887996EE95FC14C01C083F7955241,2018-02-07 14:27:24,2018-02-10 07:15:52,2018-02-08 19:00:00,1639 CONLYN ST,,,40.042760449,2 Business Days
0101000020E6100000130E5A9B48C152C081B49CD79A074440,-75.020056569,3464114,11811211,Closed,,Rubbish/Recyclable Material Collection,SR-ST03,Streets Department,0101000020110F0000F531C99F76DB5FC17EBEBCF054985241,2018-02-07 14:47:55,2018-02-10 07:15:53,2018-02-08 19:00:00,9114 WOODEN BRIDGE RD,,,40.059412908,2 Business Days
,,196,11357437,Closed,Question Answered,Information Request,SR-IR01,Register of Wills/ Orphans Court,,2017-06-06 10:00:10,2017-06-06 10:00:20,2017-06-06 10:30:15,,,,,
,,197,11357440,Closed,Question Answered,Information Request,SR-IR01,Office of Homeless Services - OHS,,2017-06-06 10:00:14,2017-06-06 10:00:23,2017-06-06 10:30:15,,,,,
0101000020E6100000D061BEBCC0C352C063810AA2C9024440,-75.058638754,3464115,11811368,Closed,,Rubbish/Recyclable Material Collection,SR-ST03,Streets Department,0101000020110F0000FE917F5CA8DF5FC1A4AC82E3FC925241,2018-02-07 15:36:34,2018-02-10 07:15:54,2018-02-11 19:00:00,6146 GILLESPIE ST,,,40.021778354,2 Business Days
0101000020E610000088F8240382CD52C0BD851A2AEBF84340,-75.211060321,285,8997418,Closed,,Vacant House or Commercial,SR-LI27,License & Inspections,0101000020110F0000FC42F53B3AF05FC1517412860C885241,2015-02-01 15:15:12,2015-08-12 03:47:35,2015-02-26 19:00:00,1222 S MARKOE ST,,https://d21tc4b3k3r3vo.cloudfront.net/uploads/27412/requests/54ce83c52782a-369.jpg,39.944676648,20 Business Days
0101000020E6100000F9AE528BD2C252C04F038A8143034440,-75.044100603,286,8997419,Closed,Information Provided,Graffiti Removal,SR-CL01,Community Life Improvement Program,0101000020110F00000B9436C413DE5FC1D9EDD60D84935241,2015-02-01 15:15:16,2015-08-12 03:47:36,2015-02-09 19:00:00,6817 TORRESDALE AVE,,https://d21tc4b3k3r3vo.cloudfront.net/uploads/27412/requests/54ce868643902-369.jpg,40.025497616,7 Business Days
0101000020E6100000E6907989D6C252C0575F3C073F034440,-75.044344297,287,8997420,Closed,Information Provided,Graffiti Removal,SR-CL01,Community Life Improvement Program,0101000020110F000061E7708C1ADE5FC1A4AD7A167F935241,2015-02-01 15:15:20,2015-08-12 03:47:36,2015-02-09 19:00:00,6813 TORRESDALE AVE,,https://d21tc4b3k3r3vo.cloudfront.net/uploads/27412/requests/54ce870a1d28d-369.jpg,40.025360966,7 Business Days
0101000020E6100000CD0182393AC852C063EA11173E004440,-75.128553754,289,9004908,Closed,,Rubbish/Recyclable Material Collection,SR-ST03,Streets Department,0101000020110F000013323D1642E75FC1FB47B9682A905241,2015-02-05 08:29:10,2017-05-31 21:06:16,2015-02-08 19:00:00,3408 N FRONT ST,19140,,40.001894844,2 Business Days
0101000020E610000094171548BBCE52C08F8F7120FF054440,-75.230180761,290,9060103,Closed,,Rubbish/Recyclable Material Collection,SR-ST03,Streets Department,0101000020110F000066FD865A4EF25FC13197711F8C965241,2015-03-09 09:15:18,2017-05-31 21:06:16,2015-03-10 20:00:00,7200 SHALKOP ST,,,40.046848348,2 Business Days
0101000020E61000003DBED608B1CC52C034EF9B6F02FB4340,-75.198305326,291,8997425,Closed,Question Answered,Information Request,SR-IR01,Philly311 Contact Center,0101000020110F0000DADBB343D7EE5FC154E1898F5D8A5241,2015-02-01 15:45:06,2015-08-12 03:47:35,,3835 LANCASTER AVE,,https://d21tc4b3k3r3vo.cloudfront.net/uploads/27412/requests/54ce8db328f4d-369.jpg,39.961011842,None
0101000020E61000000123BB14CFC252C018A364285D044440,-75.04388922,255,8997393,Closed,Repair Completed,Graffiti Removal,SR-CL01,Community Life Improvement Program,0101000020110F0000585C3FE20DDE5FC15070F173BC945241,2015-02-01 11:15:27,2015-08-12 03:47:31,2015-02-09 19:00:00,7100 CHARLES ST,,https://d21tc4b3k3r3vo.cloudfront.net/uploads/27412/requests/54ce505d0776e-369.jpg,40.034092953,7 Business Days
0101000020E6100000BD516D6871C252C0C90AD9D4D4044440,-75.038171867,256,8997394,Closed,Repair Completed,Graffiti Removal,SR-CL01,Community Life Improvement Program,0101000020110F0000D9C049C56EDD5FC1A509F03341955241,2015-02-01 11:15:31,2015-08-12 03:47:31,2015-02-09 19:00:00,7370 FRANKFORD AVE,,https://d21tc4b3k3r3vo.cloudfront.net/uploads/27412/requests/54ce50a802b62-369.jpg,40.0377451,7 Business Days
0101000020E6100000BC5A0FDBEDC952C0C3DD936677064440,-75.155142564,3464116,11811496,Closed,,Rubbish/Recyclable Material Collection,SR-ST03,Streets Department,0101000020110F0000954ED10C26EA5FC157F24D9011975241,2018-02-07 16:21:15,2018-02-10 07:15:55,2018-02-11 19:00:00,2061 MEDARY AVE,,,40.050518825,2 Business Days
,,1845926,10979811,Closed,,Information Request,SR-IR01,Streets Department,,2016-10-07 13:45:17,2017-08-05 12:36:20,2017-08-31 15:13:33,,,,,
0101000020E6100000611C1A1ED4C252C04A30EE697B044440,-75.044196628,258,8997395,Closed,Repair Completed,Graffiti Removal,SR-CL01,Community Life Improvement Program,0101000020110F0000B0B65F7016DE5FC1DFFEA203DE945241,2015-02-01 11:45:07,2015-08-12 03:47:31,2015-02-09 19:00:00,7101 FRANKFORD AVE,,https://d21tc4b3k3r3vo.cloudfront.net/uploads/27412/requests/54ce516f67245-369.jpg,40.035016294,7 Business Days
0101000020E61000005D424F14F2C252C09CA9EF805B044440,-75.046025346,259,8997396,Closed,Repair Completed,Graffiti Removal,SR-CL01,Community Life Improvement Program,0101000020110F0000364CFE5449DE5FC1C9B03A9EBA945241,2015-02-01 11:45:11,2015-08-12 03:47:31,2015-02-09 19:00:00,7033 FRANKFORD AVE,,https://d21tc4b3k3r3vo.cloudfront.net/uploads/27412/requests/54ce521a88937-369.jpg,40.034042472,7 Business Days
0101000020E6100000A7D1FDFFACC952C0C826D803D6024440,-75.151184078,3464117,11811514,Closed,,Rubbish/Recyclable Material Collection,SR-ST03,Streets Department,0101000020110F0000C8C3D5E2B7E95FC1EDB8F29E0A935241,2018-02-07 16:26:35,2018-02-10 07:15:56,2018-02-11 19:00:00,4510 N MOLE ST,,,40.022156216,2 Business Days
0101000020E61000001459EF6099CB52C0886A08963C044440,-75.181236487,261,8997478,Closed,,Information Request,SR-IR01,Water Department (PWD),0101000020110F0000314EA63DFCEC5FC1C647CB5298945241,2015-02-02 07:15:20,2015-08-12 03:47:39,,WAYNE AVE & W RITTENHOUSE ST,,,40.033098942,None
,,262,8997482,Closed,Question Answered,Information Request,SR-IR01,State/Federal Government Offices,,2015-02-02 08:02:07,2015-02-02 08:02:19,,,,,,None
,,263,8997483,Closed,Question Answered,Information Request,SR-IR01,Water Revenue,,2015-02-02 08:02:33,2015-02-02 08:06:07,,,19134,,,None
,,264,8997484,Closed,Question Answered,Information Request,SR-IR01,Philly311 Contact Center,,2015-02-02 08:03:10,2015-02-02 08:03:11,,,UNKNOWN,,,None
,,266,8997486,Closed,Question Answered,Information Request,SR-IR01,Office of the Director of Finance,,2015-02-02 08:04:14,2015-03-24 12:24:00,,,19140,,,None
,,267,8997487,Closed,Question Answered,Information Request,SR-IR01,Police Department,,2015-02-02 08:04:52,2015-02-02 08:09:28,,,19132,,,None
,,269,8997489,Closed,Question Answered,Information Request,SR-IR01,,,2015-02-02 08:05:11,2015-02-02 08:05:29,,,,,,None
0101000020E61000005CFD1A4191C952C06E7F368B7A064440,-75.149490623,3464118,11811430,Closed,,Rubbish/Recyclable Material Collection,SR-ST03,Streets Department,0101000020110F00005449DEC188E95FC1AF1F0D0D15975241,2018-02-07 15:54:42,2018-02-10 07:15:57,2018-02-11 19:00:00,6326 N GRATZ ST,,,40.050614736,2 Business Days
0101000020E6100000B1D9F414F7C952C05E0F89EF02064440,-75.155705677,3464119,11811533,Closed,,Rubbish/Recyclable Material Collection,SR-ST03,Streets Department,0101000020110F0000C286BCB835EA5FC1EA36415990965241,2018-02-07 16:35:55,2018-02-10 07:15:58,2018-02-11 19:00:00,6050 N 21ST ST,,,40.046964586,2 Business Days
,,271,8997491,Closed,Question Answered,Information Request,SR-IR01,Philadelphia Parking Authority- PPA,,2015-02-02 08:07:51,2015-02-02 08:08:05,,,,,,None
,,272,8997492,Closed,Question Answered,Information Request,SR-IR01,First Judicial District/Courts,,2015-02-02 08:08:31,2015-02-02 08:08:44,,,19143,,,None
,,273,8997493,Closed,Question Answered,Information Request,SR-IR01,Philly311 Contact Center,,2015-02-02 08:08:50,2015-02-02 08:08:50,,,,,,None
,,274,8997494,Closed,Question Answered,Information Request,SR-IR01,Philly311 Contact Center,,2015-02-02 08:09:16,2015-02-02 08:09:16,,,19146,,,None
,,275,8997495,Closed,Question Answered,Information Request,SR-IR01,Philly311,,2015-02-02 08:09:26,2015-02-02 08:09:50,,,,,,None
,,276,8997497,Closed,Question Answered,Information Request,SR-IR01,Department of Records,,2015-02-02 08:09:56,2015-02-02 08:10:09,,,19146,,,None
,,277,11361303,Closed,Question Answered,Information Request,SR-IR01,Philly311 Contact Center,,2017-06-07 18:00:34,2017-06-07 18:00:43,2017-06-07 18:30:11,,,,,
,,278,8997499,Closed,Question Answered,Information Request,SR-IR01,Philly311 Contact Center,,2015-02-02 08:10:19,2015-02-02 08:10:19,,,19139,,,None
,,279,8997500,Closed,Question Answered,Information Request,SR-IR01,Prisons,,2015-02-02 08:10:51,2015-03-27 15:58:28,,,,,,None
,,280,11361305,Closed,Question Answered,Information Request,SR-IR01,Community Life Improvement Program,,2017-06-07 18:02:02,2017-06-07 18:02:41,2017-06-07 18:30:11,,,,,
,,281,8997502,Closed,Question Answered,Information Request,SR-IR01,Philly311,,2015-02-02 08:11:56,2015-03-27 09:50:14,,,19133,,,None
,,283,8997504,Closed,Question Answered,Information Request,SR-IR01,Philly311 Contact Center,,2015-02-02 08:12:39,2015-02-02 08:12:39,,,19151,,,None
,,284,8997505,Closed,Question Answered,Information Request,SR-IR01,Philadelphia Redevelopment Authority- PRA,,2015-02-02 08:12:46,2015-02-02 08:16:57,,,19133,,,None
,,205,11450154,Closed,Question Answered,Information Request,SR-IR01,Office of the Director of Finance,,2017-07-28 11:37:41,2017-07-28 11:37:56,2017-07-28 12:00:13,,,,,
0101000020E610000069FC677256C252C036E86C7DE8044440,-75.036526297,207,8997408,Closed,Repair Completed,Graffiti Removal,SR-CL01,Community Life Improvement Program,0101000020110F00003FDC82F940DD5FC12FEA940257955241,2015-02-01 13:50:38,2015-04-30 06:58:13,2015-02-09 19:00:00,7439 FRANKFORD AVE,,,40.038345028,7 Business Days
0101000020E61000006D58CF2070CD52C01BA75B557AF84340,-75.209968756,208,8997409,Closed,Issue Resolved,Graffiti Removal,SR-CL01,Community Life Improvement Program,0101000020110F0000A03C32DB1BF05FC16C33C4888F875241,2015-02-01 14:15:06,2015-08-12 03:47:32,2015-02-09 19:00:00,1450 GRAYS FERRY AVE,19143,,39.94123332,7 Business Days
0101000020E6100000A4C7CE5F91CD52C0F36BD20ADFF84340,-75.211997937,209,8997410,Closed,Issue Resolved,Graffiti Removal,SR-CL01,Community Life Improvement Program,0101000020110F0000D780FB5354F05FC10C604F18FF875241,2015-02-01 14:15:10,2015-08-12 03:47:36,2015-02-09 19:00:00,1221 S 47TH ST,19143,https://d21tc4b3k3r3vo.cloudfront.net/uploads/27412/requests/54ce74e433e8d-369.jpg,39.944306715,7 Business Days
0101000020E6100000436CB8E15ACD52C0D40BA1F784F84340,-75.208671975,210,8997411,Closed,Issue Resolved,Graffiti Removal,SR-CL01,Community Life Improvement Program,0101000020110F000089F65AC4F7EF5FC1E4A450509B875241,2015-02-01 14:15:14,2015-08-12 03:47:35,2015-02-09 19:00:00,1515 S 47TH ST,19143,,39.941557844,7 Business Days
0101000020E6100000376E10318EC252C03584BE4F30054440,-75.039928688,212,8997413,Closed,Repair Completed,Graffiti Removal,SR-CL01,Community Life Improvement Program,0101000020110F000097E8A8A99FDD5FC109ACF6AEA6955241,2015-02-01 14:19:05,2015-04-30 06:58:13,2015-02-09 19:00:00,7400 CRISPIN ST,,,40.040536849,7 Business Days
0101000020E6100000D577C06D14C252C0BE818FE218054440,-75.032496871,213,8997414,Closed,Repair Completed,Graffiti Removal,SR-CL01,Community Life Improvement Program,0101000020110F0000128E0CD6D0DC5FC1BF9C12B28C955241,2015-02-01 14:39:28,2015-04-30 06:58:07,2015-02-09 19:00:00,7700 FRANKFORD AVE,,,40.039821933,7 Business Days
0101000020E6100000D577C06D14C252C0BE818FE218054440,-75.032496871,214,8997415,Closed,Information Provided,Graffiti Removal,SR-CL01,Community Life Improvement Program,0101000020110F0000128E0CD6D0DC5FC1BF9C12B28C955241,2015-02-01 14:45:15,2015-04-30 06:58:07,2015-02-09 19:00:00,7700 FRANKFORD AVE,,,40.039821933,7 Business Days
,,215,11409449,Closed,Question Answered,Information Request,SR-IR01,Office of Property Assessment- OPA,,2017-07-05 16:35:59,2017-07-05 16:36:08,2017-07-05 17:00:14,,,,,
0101000020E6100000888982F013C252C0A033ED8B19054440,-75.032467011,216,8997417,Closed,Repair Completed,Graffiti Removal,SR-CL01,Community Life Improvement Program,0101000020110F000098235001D0DC5FC1EA9CF46D8D955241,2015-02-01 15:15:07,2015-08-12 03:47:36,2015-02-09 19:00:00,7700 FRANKFORD AVE,,https://d21tc4b3k3r3vo.cloudfront.net/uploads/27412/requests/54ce8362c88c9-369.jpg,40.039842119,7 Business Days
,,217,11409450,Closed,Question Answered,Information Request,SR-IR01,Probation/Parole,,2017-07-05 16:36:11,2017-07-05 16:36:20,2017-07-05 17:00:14,,,,,
0101000020E6100000B3326D41E7C152C0A1EEEAF239054440,-75.029739718,295,8997430,Closed,Issue Resolved,Graffiti Removal,SR-CL01,Community Life Improvement Program,0101000020110F00003EFDE01A84DC5FC1B068E85FB1955241,2015-02-01 17:22:57,2015-04-30 06:58:02,2015-02-09 19:00:00,7900 FRANKFORD AVE,,,40.04083096,7 Business Days
0101000020E6100000B36AA54A33CA52C08EC625B73BF84340,-75.159380592,296,8997431,Closed,Issue Resolved,Graffiti Removal,SR-CL01,Community Life Improvement Program,0101000020110F0000D18070FE9BEA5FC1185CDE2B4A875241,2015-02-01 17:45:06,2015-08-12 03:47:37,2015-02-09 19:00:00,827 S 10TH ST,19147,https://d21tc4b3k3r3vo.cloudfront.net/uploads/27412/requests/54cea6069fa97-369.jpg,39.939322372,7 Business Days
0101000020E6100000902927F332CA52C021A89EF53EF84340,-75.159359731,297,8997432,Closed,Issue Resolved,Graffiti Removal,SR-CL01,Community Life Improvement Program,0101000020110F00006AD0D2699BEA5FC14E56C8C34D875241,2015-02-01 17:45:12,2015-08-12 03:47:37,2015-02-09 19:00:00,823 S 10TH ST,19147,https://d21tc4b3k3r3vo.cloudfront.net/uploads/27412/requests/54cea65febe42-369.jpg,39.939421367,7 Business Days
0101000020E6100000772E4AD810CA52C0E0D7481284F84340,-75.157278126,298,8997434,Closed,Issue Resolved,Graffiti Removal,SR-CL01,Community Life Improvement Program,0101000020110F000016E2927B61EA5FC1D01343529A875241,2015-02-01 17:45:20,2015-08-12 03:47:37,2015-02-09 19:00:00,703 S 09TH ST,19147,https://d21tc4b3k3r3vo.cloudfront.net/uploads/27412/requests/54cea87ca7cc2-369.jpg,39.941530503,7 Business Days
0101000020E6100000ECADBB58DCCD52C013B3456FC4F94340,-75.216573893,300,8997436,Closed,Issue Resolved,Graffiti Removal,SR-CL01,Community Life Improvement Program,0101000020110F0000F4F918ADD3F05FC13D126639FD885241,2015-02-01 18:15:07,2015-08-12 03:47:37,2015-02-09 19:00:00,436 S 47TH ST,19143,,39.95130721,7 Business Days
0101000020E6100000149B0B33DFCD52C09923754CA7F94340,-75.216748008,301,8997437,Closed,Issue Resolved,Graffiti Removal,SR-CL01,Community Life Improvement Program,0101000020110F000090399B85D8F05FC1CEEEE1F1DC885241,2015-02-01 18:15:11,2015-08-12 03:47:37,2015-02-09 19:00:00,512 S 47TH ST,19143,https://d21tc4b3k3r3vo.cloudfront.net/uploads/27412/requests/54ceb06a621ef-369.jpg,39.950418048,7 Business Days
0101000020E6100000846076CBE5CD52C0FA6659FF80F94340,-75.217150564,303,8997438,Closed,Issue Resolved,Graffiti Removal,SR-CL01,Community Life Improvement Program,0101000020110F00009D7A8DB9E3F05FC1A19D1A83B2885241,2015-02-01 18:15:14,2015-08-12 03:47:37,2015-02-09 19:00:00,4700 CEDAR AVE,19143,https://d21tc4b3k3r3vo.cloudfront.net/uploads/27412/requests/54ceb14a708f7-369.jpg,39.949249188,7 Business Days
0101000020E6100000E1D40792F7CD52C0A1E37A4668F94340,-75.2182355,304,8997439,Closed,Issue Resolved,Graffiti Removal,SR-CL01,Community Life Improvement Program,0101000020110F0000708F26EB01F15FC18D82A41F97885241,2015-02-01 18:15:18,2015-08-12 03:47:36,2015-02-09 19:00:00,4723 BALTIMORE AVE,19143,https://d21tc4b3k3r3vo.cloudfront.net/uploads/27412/requests/54ceb23be4b6e-369.jpg,39.94849473,7 Business Days
,,369,8997522,Closed,Question Answered,Information Request,SR-IR01,Revenue,,2015-02-02 08:18:31,2015-02-02 08:20:02,,,Non-Provid,,,None
,,370,8997524,Closed,Question Answered,Information Request,SR-IR01,Revenue,,2015-02-02 08:19:08,2015-03-24 12:06:36,,,,,,None
,,371,8997525,Closed,Question Answered,Information Request,SR-IR01,Philadelphia Water Department- PWD,,2015-02-02 08:19:09,2015-02-02 08:19:42,,,19139,,,None
,,372,8997526,Closed,Question Answered,Information Request,SR-IR01,Philly311 Contact Center,,2015-02-02 08:19:11,2015-02-02 08:19:12,,,,,,None
,,373,8997530,Closed,Question Answered,Information Request,SR-IR01,Revenue,,2015-02-02 08:20:01,2015-02-02 08:20:11,,,,,,None
0101000020E6100000261C9B99F0CD52C0E0E42B3F78FA4340,-75.217810056,223,8997361,Closed,Issue Resolved,Graffiti Removal,SR-CL01,Community Life Improvement Program,0101000020110F00002A2F2014F6F05FC1C517DF71C4895241,2015-02-01 00:15:31,2015-08-12 03:47:26,2015-02-09 19:00:00,4801 SANSOM ST,19139,https://d21tc4b3k3r3vo.cloudfront.net/uploads/27412/requests/54cdb54677932-369.jpg,39.956794643,7 Business Days
0101000020E6100000F739A18417CE52C0D9DC455606FA4340,-75.220185434,224,8997358,Closed,Issue Resolved,Graffiti Removal,SR-CL01,Community Life Improvement Program,0101000020110F0000A309532F38F15FC178A0F03C46895241,2015-02-01 00:15:19,2015-08-12 03:47:26,2015-02-09 19:00:00,309 S 49TH ST,19143,https://d21tc4b3k3r3vo.cloudfront.net/uploads/27412/requests/54cdb2000627f-369.jpg,39.953318392,7 Business Days
0101000020E610000032E4D87A06CE52C04489331263FA4340,-75.219145502,225,8997360,Closed,Issue Resolved,Graffiti Removal,SR-CL01,Community Life Improvement Program,0101000020110F00003FD4653E1BF15FC1ABE78FFBAC895241,2015-02-01 00:15:27,2015-08-12 03:47:26,2015-02-09 19:00:00,4866 WALNUT ST,19139,https://d21tc4b3k3r3vo.cloudfront.net/uploads/27412/requests/54cdb45cc98e5-369.jpg,39.956148414,7 Business Days
0101000020E6100000A5D5D2D419CE52C064D6200619FA4340,-75.220326625,226,8997362,Closed,Issue Resolved,Graffiti Removal,SR-CL01,Community Life Improvement Program,0101000020110F0000DF9F391D3CF15FC14C5C1EF15A895241,2015-02-01 00:15:35,2015-08-12 03:47:26,2015-02-09 19:00:00,4901 SPRUCE ST,19139,https://d21tc4b3k3r3vo.cloudfront.net/uploads/27412/requests/54cdb61a73c77-369.jpg,39.953888673,7 Business Days
0101000020E61000003137291689CE52C0D11CFE3F73FD4340,-75.2271171,228,8997364,Closed,Issue Resolved,Graffiti Removal,SR-CL01,Community Life Improvement Program,0101000020110F00003D8BA417F9F15FC17CA18FFB118D5241,2015-02-01 01:15:08,2015-08-12 03:47:26,2015-02-09 19:00:00,5256 JEFFERSON ST,19131,https://d21tc4b3k3r3vo.cloudfront.net/uploads/27412/requests/54cdc0aa947f2-369.jpg,39.980079651,7 Business Days
,,3945472,11928793,Closed,,Information Request,SR-IR01,License & Inspections,,2018-04-20 17:30:42,2018-04-20 17:30:52,2018-04-20 18:00:11,,,,,
0101000020E6100000E06932E32DC652C076C101A9A4054440,-75.096550745,2118391,9383117,Closed,,Maintenance Residential or Commercial,SR-LI21,License & Inspections,0101000020110F0000556E8C72C7E35FC15F6BDBC127965241,2015-09-14 09:22:52,2017-08-19 13:47:12,2015-10-13 20:00:00,6054 LAWNDALE AVE,19111,,40.044087526,20 Business Days
0101000020E6100000E34E4C8B38CA52C0E2AFA80C0CF84340,-75.159701178,240,8997375,Closed,Issue Resolved,Graffiti Removal,SR-CL01,Community Life Improvement Program,0101000020110F0000C64F77EAA4EA5FC13C92535F15875241,2015-02-01 09:45:20,2015-08-12 03:47:29,2015-02-09 19:00:00,1001 S 10TH ST,19147,https://d21tc4b3k3r3vo.cloudfront.net/uploads/27412/requests/54ce39a1378aa-369.jpg,39.937867725,7 Business Days
0101000020E61000002109563045CA52C0A51FE4279BF74340,-75.160472955,241,8997376,Closed,Issue Resolved,Graffiti Removal,SR-CL01,Community Life Improvement Program,0101000020110F0000659DE664BAEA5FC1A939755398865241,2015-02-01 09:45:24,2015-08-12 03:47:29,2015-02-09 19:00:00,1202 S 10TH ST,19147,https://d21tc4b3k3r3vo.cloudfront.net/uploads/27412/requests/54ce3b3e743b5-369.jpg,39.934422478,7 Business Days
0101000020E6100000E3DAB35B49CA52C07E1564F471F74340,-75.160727427,242,8997377,Closed,Issue Resolved,Graffiti Removal,SR-CL01,Community Life Improvement Program,0101000020110F0000A722EE79C1EA5FC16CF6F1B06A865241,2015-02-01 09:45:29,2015-08-12 03:47:29,2015-02-09 19:00:00,1301 S 10TH ST,19147,https://d21tc4b3k3r3vo.cloudfront.net/uploads/27412/requests/54ce3bc5c8716-369.jpg,39.933165117,7 Business Days
,,3945473,11928794,Closed,Question Answered,Information Request,SR-IR01,Department of Public Health,,2018-04-20 17:30:58,2018-04-20 17:31:09,2018-04-20 18:00:11,,,,,
0101000020E61000008D921D3C4FCA52C07B9332EB3DF74340,-75.161086112,244,8997381,Closed,Issue Resolved,Graffiti Removal,SR-CL01,Community Life Improvement Program,0101000020110F00002AB75375CBEA5FC16CDC910E31865241,2015-02-01 10:15:27,2015-08-12 03:47:29,2015-02-09 19:00:00,1401 S 10TH ST,19147,https://d21tc4b3k3r3vo.cloudfront.net/uploads/27412/requests/54ce3d45c439c-369.jpg,39.931577113,7 Business Days
0101000020E610000081A7778E54CA52C0587B12B70EF74340,-75.161410924,245,8997382,Closed,Issue Resolved,Graffiti Removal,SR-CL01,Community Life Improvement Program,0101000020110F0000F8346B7FD4EA5FC15783A6C6FC855241,2015-02-01 10:15:30,2015-08-12 03:47:29,2015-02-09 19:00:00,1522 S 10TH ST,19147,https://d21tc4b3k3r3vo.cloudfront.net/uploads/27412/requests/54ce3defbb408-369.jpg,39.930136569,7 Business Days
0101000020E6100000EEA7ADAE56CA52C0AAC44C0DFAF64340,-75.161540669,246,8997383,Closed,Issue Resolved,Graffiti Removal,SR-CL01,Community Life Improvement Program,0101000020110F000023DAD01BD8EA5FC1ADDAFCE3E5855241,2015-02-01 10:15:34,2015-08-12 03:47:29,2015-02-09 19:00:00,1601 S 10TH ST,19148,https://d21tc4b3k3r3vo.cloudfront.net/uploads/27412/requests/54ce3e6d0ba5d-369.jpg,39.92950598,7 Business Days
0101000020E6100000CFB5F5F44DCA52C0D926B262FAF64340,-75.161008109,247,8997384,Closed,Issue Resolved,Graffiti Removal,SR-CL01,Community Life Improvement Program,0101000020110F0000E4BF9E49C9EA5FC1D6379142E6855241,2015-02-01 10:15:38,2015-08-12 03:47:29,2015-02-09 19:00:00,932 TASKER ST,19148,https://d21tc4b3k3r3vo.cloudfront.net/uploads/27412/requests/54ce3ebca65f0-369.jpg,39.929516165,7 Business Days
,,250,11348705,Closed,,Information Request,SR-IR01,Streets Department,,2017-05-31 16:00:17,2017-05-31 16:01:05,2017-05-31 16:30:14,,19143,,,
0101000020E610000026B527B387C252C007D3307CC4044440,-75.039532464,251,8997389,Closed,Repair Completed,Graffiti Removal,SR-CL01,Community Life Improvement Program,0101000020110F0000BD70BDA294DD5FC15B1FEE112F955241,2015-02-01 11:15:12,2015-08-12 03:47:31,2015-02-09 19:00:00,7331 FRANKFORD AVE,,https://d21tc4b3k3r3vo.cloudfront.net/uploads/27412/requests/54ce4e1448ded-369.jpg,40.037246254,7 Business Days
0101000020E61000003CAE99BE8FC252C0CEEDB136BE044440,-75.040023468,252,8997390,Closed,Repair Completed,Graffiti Removal,SR-CL01,Community Life Improvement Program,0101000020110F00008038EA4CA2DD5FC1D2AFF91C28955241,2015-02-01 11:15:16,2015-08-12 03:47:31,2015-02-09 19:00:00,7317 FRANKFORD AVE,,https://d21tc4b3k3r3vo.cloudfront.net/uploads/27412/requests/54ce4e8e5ceeb-369.jpg,40.037054864,7 Business Days
,,366,8997624,Closed,,Information Request,SR-IR01,Licenses & Inspections- L&I,,2015-02-02 08:52:59,2015-02-02 08:53:13,,,,,,None
,,367,8997626,Closed,Question Answered,Information Request,SR-IR01,Philly311 Contact Center,,2015-02-02 08:53:47,2015-02-02 08:53:47,,,19149,,,None
,,368,8997528,Closed,Question Answered,Information Request,SR-IR01,Philly311 Contact Center,,2015-02-02 08:19:34,2015-02-02 08:19:34,,,19104,,,None
0101000020E610000028E8BCE7FCCD52C05AC03E1967F94340,-75.218561113,305,8997440,Closed,Issue Resolved,Graffiti Removal,SR-CL01,Community Life Improvement Program,0101000020110F00007823F1FA0AF15FC13A9AEBD195885241,2015-02-01 18:15:22,2015-08-12 03:47:36,2015-02-09 19:00:00,4731 BALTIMORE AVE,19143,https://d21tc4b3k3r3vo.cloudfront.net/uploads/27412/requests/54ceb2e4272eb-369.jpg,39.948458821,7 Business Days
0101000020E6100000DB9077F507CE52C01AA4E02964F94340,-75.219235772,306,8997441,Closed,Issue Resolved,Graffiti Removal,SR-CL01,Community Life Improvement Program,0101000020110F00000D8A85C11DF15FC1CD3D859192885241,2015-02-01 18:45:07,2015-08-12 03:47:40,2015-02-09 19:00:00,S 48TH ST & BALTIMORE AVE,19143,https://d21tc4b3k3r3vo.cloudfront.net/uploads/27412/requests/54ceb405cabd9-369.jpg,39.94836925,7 Business Days
,,1845707,11040799,Closed,,Information Request,SR-IR01,Streets Department,,2016-11-16 15:41:32,2017-08-05 12:35:18,2017-08-31 15:13:32,,19139,,,
0101000020E6100000DB9077F507CE52C01AA4E02964F94340,-75.219235772,307,8997442,Closed,Issue Resolved,Graffiti Removal,SR-CL01,Community Life Improvement Program,0101000020110F00000D8A85C11DF15FC1CD3D859192885241,2015-02-01 18:45:12,2015-08-12 03:47:40,2015-02-09 19:00:00,S 48TH ST & BALTIMORE AVE,19143,https://d21tc4b3k3r3vo.cloudfront.net/uploads/27412/requests/54ceb4a8062ba-369.jpg,39.94836925,7 Business Days
0101000020E61000005DEC49A2CFCD52C07F9EED6E71F94340,-75.215797971,308,8997443,Closed,Issue Resolved,Graffiti Removal,SR-CL01,Community Life Improvement Program,0101000020110F000003A91815BEF05FC17A72F044A1885241,2015-02-01 18:45:16,2015-08-12 03:47:40,2015-02-09 19:00:00,4617 BALTIMORE AVE,19143,https://d21tc4b3k3r3vo.cloudfront.net/uploads/27412/requests/54ceb5f077a7b-369.jpg,39.948774213,7 Business Days
,,374,8997531,Closed,Question Answered,Information Request,SR-IR01,Philly311 Contact Center,,2015-02-02 08:20:04,2015-02-02 08:20:04,,,,,,None
,,375,8997532,Closed,Question Answered,Information Request,SR-IR01,Revenue,,2015-02-02 08:21:10,2015-02-02 08:21:35,,,19124,,,None
,,377,8997535,Closed,Question Answered,Information Request,SR-IR01,First Judicial District/Courts,,2015-02-02 08:22:26,2015-02-02 08:22:36,,,,,,None
,,378,8997536,Closed,Question Answered,Information Request,SR-IR01,Philly311 Contact Center,,2015-02-02 08:23:24,2015-03-05 12:10:59,,,,,,None
,,379,8997537,Closed,Question Answered,Information Request,SR-IR01,Revenue,,2015-02-02 08:23:50,2015-02-02 08:24:07,,,19120,,,None
,,380,8997538,Closed,Question Answered,Information Request,SR-IR01,First Judicial District/Courts,,2015-02-02 08:24:15,2015-02-02 08:24:27,,,19132,,,None
,,381,8997539,Closed,Question Answered,Information Request,SR-IR01,Prisons,,2015-02-02 08:24:29,2015-02-02 08:25:26,,,,,,None
,,382,8997540,Closed,Question Answered,Information Request,SR-IR01,Philly311 Contact Center,,2015-02-02 08:25:00,2015-02-02 08:25:00,,,,,,None
,,383,8997541,Closed,Question Answered,Information Request,SR-IR01,State/Federal Government Offices,,2015-02-02 08:25:00,2015-02-02 08:25:11,,,19132,,,None
,,384,8997542,Closed,Question Answered,Information Request,SR-IR01,,,2015-02-02 08:25:07,2015-02-02 08:26:02,,,19134,,,None
,,385,8997543,Closed,Question Answered,Information Request,SR-IR01,Philly311 Contact Center,,2015-02-02 08:25:14,2015-03-13 11:15:41,,,,,,None
,,386,8997544,Closed,Question Answered,Information Request,SR-IR01,Department of Public Health,,2015-02-02 08:25:17,2015-02-02 08:26:58,,,19120,,,None
,,387,8997545,Closed,Question Answered,Information Request,SR-IR01,State/Federal Government Offices,,2015-02-02 08:25:22,2015-02-02 08:25:34,,,19132,,,None
,,388,8997546,Closed,Question Answered,Information Request,SR-IR01,Philly311,,2015-02-02 08:26:01,2015-02-02 08:26:10,,,,,,None
,,464,8997641,Closed,Question Answered,Information Request,SR-IR01,Philadelphia Water Department- PWD,,2015-02-02 08:58:24,2015-02-02 08:59:14,,,,,,None
,,465,8997642,Closed,Question Answered,Information Request,SR-IR01,Philly311 Contact Center,,2015-02-02 08:59:28,2015-02-02 08:59:28,,,19138,,,None
,,467,8997646,Closed,Question Answered,Information Request,SR-IR01,City Council,,2015-02-02 09:00:22,2015-02-02 09:02:14,,,19104,,,None
,,468,8997647,Closed,Question Answered,Information Request,SR-IR01,Philly311 Contact Center,,2015-02-02 09:00:22,2015-02-02 09:00:23,,,,,,None
,,469,8997648,Closed,Question Answered,Information Request,SR-IR01,Revenue,,2015-02-02 09:00:45,2015-02-02 09:01:03,,,19115,,,None
,,470,8997649,Closed,Question Answered,Information Request,SR-IR01,Office of Human Resources- OHR,,2015-02-02 09:00:58,2015-02-02 09:01:49,,,,,,None
,,560,8997759,Closed,Question Answered,Information Request,SR-IR01,First Judicial District/Courts,,2015-02-02 09:25:51,2015-02-02 09:26:07,,,19106,,,None
0101000020E61000008FA6592416C852C08B449183CC044440,-75.126351437,2120733,9554811,Closed,,Maintenance Residential or Commercial,SR-LI21,License & Inspections,0101000020110F0000F64CFFCB04E75FC1EB75F0F937955241,2015-11-24 09:44:52,2017-08-19 13:56:08,2015-12-23 19:00:00,222 W CHEW AVE,19120,,40.037491272,20 Business Days
0101000020E6100000BE20B799A9C452C01CB7F3580E064440,-75.07285159,2120734,9928088,Closed,,Vacant House or Commercial,SR-LI27,License & Inspections,0101000020110F00003B2421E733E15FC1B5F46A029D965241,2016-01-04 09:38:48,2017-08-19 13:56:08,2016-02-02 19:00:00,1341 DISSTON ST,,,40.047312853,20 Business Days
0101000020E6100000B3326D41E7C152C0A1EEEAF239054440,-75.029739718,431,8997711,Closed,Information Provided,Graffiti Removal,SR-CL01,Community Life Improvement Program,0101000020110F00003EFDE01A84DC5FC1B068E85FB1955241,2015-02-02 09:15:06,2015-08-12 03:47:42,2015-02-10 19:00:00,7900 FRANKFORD AVE,,,40.04083096,7 Business Days
,,432,8997714,Closed,Question Answered,Information Request,SR-IR01,,,2015-02-02 09:15:31,2015-02-02 09:15:41,,,,,,None
,,433,8997715,Closed,Question Answered,Information Request,SR-IR01,Philly311 Contact Center,,2015-02-02 09:15:59,2015-02-02 09:15:59,,,19141,,,None
,,434,8997716,Closed,Question Answered,Information Request,SR-IR01,Philly311 Contact Center,,2015-02-02 09:16:00,2015-02-02 09:16:01,,,19149,,,None
,,435,8997717,Closed,Question Answered,Information Request,SR-IR01,Revenue,,2015-02-02 09:16:41,2015-02-02 09:16:58,,,,,,None
,,436,8997718,Closed,Question Answered,Information Request,SR-IR01,Police Department,,2015-02-02 09:16:46,2015-02-02 09:17:20,,,19102,,,None
0101000020E6100000D099B4A9FACA52C07A2136BBE2F84340,-75.171549247,3503652,11830669,Open,,Right of Way Unit,,Streets Department,0101000020110F000010EE6AA5EEEB5FC1D08C7C2E03885241,2018-02-21 12:49:34,2018-02-21 13:00:46,2018-04-01 20:00:00,1737 SOUTH ST,,https://d17aqltn7cihbm.cloudfront.net/uploads/large_f959510ff74bb498d3f4a39b4a824bc5,39.944419293,
,,438,8997721,Closed,Question Answered,Information Request,SR-IR01,Philadelphia Water Department- PWD,,2015-02-02 09:17:13,2015-02-02 09:17:45,,,,,,None
,,440,8997723,Closed,Question Answered,Information Request,SR-IR01,Revenue,,2015-02-02 09:18:23,2015-02-02 09:18:43,,,19145,,,None
,,441,8997724,Closed,Question Answered,Information Request,SR-IR01,Philly311 Contact Center,,2015-02-02 09:18:27,2015-02-02 09:18:27,,,,,,None
0101000020E610000082D90C899EC852C028C87CFE03FF4340,-75.134676234,2120732,9554737,Closed,,License Residential,SR-LI19,License & Inspections,0101000020110F0000B79C8679ECE75FC18F79E430CE8E5241,2015-11-24 09:24:00,2017-08-19 13:56:08,2015-12-23 19:00:00,2739 N 2ND ST,19133,,39.992309388,20 Business Days
,,443,8997727,Closed,Question Answered,Information Request,SR-IR01,Philly311,,2015-02-02 09:19:00,2015-02-02 09:19:31,,,,,,None
,,444,8997728,Closed,Question Answered,Information Request,SR-IR01,Revenue,,2015-02-02 09:19:23,2015-02-02 09:20:17,,,,,,None
,,446,8997730,Closed,Question Answered,Information Request,SR-IR01,Philly311 Contact Center,,2015-02-02 09:19:35,2015-02-02 09:19:35,,,19119,,,None
,,447,8997731,Closed,Question Answered,Information Request,SR-IR01,State/Federal Government Offices,,2015-02-02 09:19:39,2015-02-02 09:23:09,,,,,,None
,,448,8997732,Closed,Question Answered,Information Request,SR-IR01,Office of the Inspector General,,2015-02-02 09:19:45,2015-02-02 09:20:22,,,19145,,,None
,,451,8997627,Closed,Question Answered,Information Request,SR-IR01,Office of Human Resources- OHR,,2015-02-02 08:54:01,2015-02-02 08:54:18,,,19046,,,None
,,452,8997628,Closed,Question Answered,Information Request,SR-IR01,State/Federal Government Offices,,2015-02-02 08:54:06,2015-02-02 08:54:51,,,19106,,,None
0101000020E6100000C0CB2D294ECE52C03EAA482287FD4340,-75.223520557,453,8997629,Closed,Issue Resolved,Abandoned Vehicle,SR-PD01,Police Department,0101000020110F0000555C480095F15FC1DC7D7505288D5241,2015-02-02 08:54:08,2015-02-20 14:27:48,2015-03-12 20:00:00,5164 VIOLA ST,,,39.980686457,30 Business Days
0101000020E6100000727A8B45DBC752C004B5EFBC1AFF4340,-75.122758275,454,9157461,Closed,,Rubbish/Recyclable Material Collection,SR-ST03,Streets Department,0101000020110F000060C2B7CCA0E65FC1388D7267E78E5241,2015-05-05 09:55:51,2017-05-31 21:13:28,2015-05-06 20:00:00,443 E CAMBRIA ST,19134,,39.993003478,2 Business Days
,,455,8997631,Closed,,Information Request,SR-IR01,Licenses & Inspections- L&I,,2015-02-02 08:55:34,2015-02-02 08:55:41,,,,,,None
,,456,8997632,Closed,Question Answered,Information Request,SR-IR01,Philly311,,2015-02-02 08:56:39,2015-02-02 08:56:51,,,19139,,,None
,,457,8997633,Closed,Question Answered,Information Request,SR-IR01,Water Revenue,,2015-02-02 08:56:41,2015-02-02 08:57:13,,,,,,None
,,458,8997634,Closed,Question Answered,Information Request,SR-IR01,Revenue,,2015-02-02 08:57:03,2015-02-02 08:57:17,,,19140,,,None
,,490,8997673,Closed,Question Answered,Information Request,SR-IR01,Department of Public Health,,2015-02-02 09:06:55,2015-02-02 09:08:58,,,,,,None
,,491,8997674,Closed,Question Answered,Information Request,SR-IR01,Police Department,,2015-02-02 09:07:19,2015-02-02 09:08:01,,,19124,,,None
,,494,8997677,Closed,Question Answered,Information Request,SR-IR01,First Judicial District/Courts,,2015-02-02 09:08:09,2015-02-02 09:08:38,,,,,,None
,,495,8997678,Closed,Question Answered,Information Request,SR-IR01,Philly311,,2015-02-02 09:08:11,2015-02-02 09:09:04,,,19134,,,None
0101000020E6100000E9CA90F8CFCA52C0D3D32E436FF74340,-75.168943539,496,8997689,Closed,,Construction Site Task Force,SR-LI06,License & Inspections,0101000020110F000048802C21A6EB5FC1414594B567865241,2015-02-02 09:10:17,2015-09-01 06:49:13,2015-02-03 19:00:00,1417 REED ST,19146,,39.933082958,48 Hours
,,498,8997683,Closed,Question Answered,Information Request,SR-IR01,Philly311 Contact Center,,2015-02-02 09:09:16,2015-02-02 09:09:16,,,19132,,,None
,,499,8997685,Closed,Question Answered,Information Request,SR-IR01,Philly311 Contact Center,,2015-02-02 09:09:30,2015-02-02 09:09:30,,,19145,,,None
,,500,8997686,Closed,Question Answered,Information Request,SR-IR01,First Judicial District/Courts,,2015-02-02 09:09:43,2015-02-02 09:10:14,,,,,,None
,,501,8997687,Closed,Question Answered,Information Request,SR-IR01,Police Department,,2015-02-02 09:09:54,2015-02-02 09:10:44,,,19132,,,None
,,502,8997691,Closed,Question Answered,Information Request,SR-IR01,Probation/Parole,,2015-02-02 09:11:10,2015-02-02 09:11:18,,,,,,None
,,503,8997688,Closed,,Information Request,SR-IR01,Licenses & Inspections- L&I,,2015-02-02 09:10:15,2015-02-02 09:10:32,,,,,,None
,,504,8997690,Closed,Question Answered,Information Request,SR-IR01,Philly311 Contact Center,,2015-02-02 09:10:25,2015-02-02 09:10:25,,,unknown,,,None
,,505,8997692,Closed,,Information Request,SR-IR01,Licenses & Inspections- L&I,,2015-02-02 09:11:23,2015-02-02 09:12:39,,,,,,None
,,459,9257641,Closed,,Information Request,SR-IR01,Streets Department,,2015-07-01 09:28:38,2017-05-31 21:13:28,2017-05-31 21:30:29,,19104,,,None
,,460,8997636,Closed,,Information Request,SR-IR01,Licenses & Inspections- L&I,,2015-02-02 08:57:37,2015-02-02 08:58:56,,,,,,None
0101000020E61000008A0E1688FDC252C04E912A27AD0B4440,-75.046724338,462,9475161,Closed,,Manhole Cover,SR-ST14,Streets Department,0101000020110F0000342DE9C85CDE5FC104A23BCFD99C5241,2015-10-23 10:59:07,2017-05-31 21:13:28,2017-05-31 21:30:29,9500 RISING SUN AVE,,,40.091221707,None
,,580,8997780,Closed,,Information Request,SR-IR01,Licenses & Inspections- L&I,,2015-02-02 09:30:17,2015-02-02 09:32:40,,,19145,,,None
,,584,8997785,Closed,Question Answered,Information Request,SR-IR01,Philly311 Contact Center,,2015-02-02 09:31:22,2015-02-02 09:31:22,,,19139,,,None
,,585,8997786,Closed,Question Answered,Information Request,SR-IR01,Philly311 Contact Center,,2015-02-02 09:31:31,2015-02-02 09:31:33,,,19141,,,None
,,586,8997788,Closed,Question Answered,Information Request,SR-IR01,Philadelphia Water Department- PWD,,2015-02-02 09:32:07,2015-02-02 09:32:19,,,19149,,,None
,,587,8997794,Closed,Question Answered,Information Request,SR-IR01,Philly311 Contact Center,,2015-02-02 09:33:36,2015-02-02 09:33:36,,,19139,,,None
,,589,8997790,Closed,Question Answered,Information Request,SR-IR01,Department of Records,,2015-02-02 09:32:23,2015-02-02 09:33:32,,,19138,,,None
,,590,8997791,Closed,Question Answered,Information Request,SR-IR01,Philly311 Contact Center,,2015-02-02 09:32:39,2015-02-02 09:32:39,,,,,,None
,,591,8997792,Closed,Question Answered,Information Request,SR-IR01,Philly311 Contact Center,,2015-02-02 09:32:52,2015-02-02 09:32:52,,,19106,,,None
0101000020E61000002EB2957E5FC352C07F0D2D57E4024440,-75.052703519,592,9812543,Closed,,Traffic (Other),SR-ST24,Streets Department,0101000020110F00002FAA432F03DF5FC1BE5430821A935241,2015-12-22 09:20:54,2017-07-30 17:00:21,2017-07-30 17:30:20,LEVICK ST & DITMAN ST,,,40.022593398,None
,,593,8997795,Closed,Question Answered,Information Request,SR-IR01,City Commissioners Office,,2015-02-02 09:33:37,2015-02-02 09:34:12,,,19140,,,None
,,594,8997796,Closed,Question Answered,Information Request,SR-IR01,Revenue,,2015-02-02 09:33:38,2015-02-02 09:34:14,,,,,,None
,,595,8997798,Closed,Question Answered,Information Request,SR-IR01,State/Federal Government Offices,,2015-02-02 09:33:43,2015-02-02 09:33:54,,,unknown,,,None
,,596,8997799,Closed,Question Answered,Information Request,SR-IR01,Philly311 Contact Center,,2015-02-02 09:33:52,2015-02-02 09:33:52,,,19111,,,None
,,597,8997800,Closed,Question Answered,Information Request,SR-IR01,Philly311 Contact Center,,2015-02-02 09:34:14,2015-03-24 11:59:20,,,19147,,,None
,,599,8997802,Closed,Question Answered,Information Request,SR-IR01,City Council,,2015-02-02 09:34:38,2015-02-02 09:35:32,,,,,,None
,,601,8997804,Closed,Question Answered,Information Request,SR-IR01,First Judicial District/Courts,,2015-02-02 09:35:37,2015-03-25 08:35:09,,,,,,None
,,639,8997952,Closed,Question Answered,Information Request,SR-IR01,Office of Housing & Community Development- OHCD,,2015-02-02 10:10:22,2015-02-02 10:10:42,,,19121,,,None
,,641,8997965,Closed,Question Answered,Information Request,SR-IR01,Philadelphia Housing Authority- PHA,,2015-02-02 10:12:30,2015-02-02 10:13:17,,,19148,,,None
,,642,8997954,Closed,Question Answered,Information Request,SR-IR01,First Judicial District/Courts,,2015-02-02 10:10:36,2015-02-02 10:11:22,,,19131,,,None
,,643,8997853,Closed,Question Answered,Information Request,SR-IR01,First Judicial District/Courts,,2015-02-02 09:47:19,2015-02-02 09:47:37,,,,,,None
,,644,8997854,Closed,Question Answered,Information Request,SR-IR01,Philadelphia Housing Authority- PHA,,2015-02-02 09:47:19,2015-02-02 09:48:09,,,19151,,,None
,,645,8997855,Closed,Question Answered,Information Request,SR-IR01,First Judicial District/Courts,,2015-02-02 09:47:27,2015-02-02 09:47:38,,,DECLINED,,,None
,,646,8997856,Closed,Question Answered,Information Request,SR-IR01,Philly311 Contact Center,,2015-02-02 09:47:32,2015-02-02 09:47:32,,,,,,None
,,647,8997857,Closed,Question Answered,Information Request,SR-IR01,Department of Records,,2015-02-02 09:47:47,2015-02-02 09:48:03,,,19154,,,None
0101000020E61000004D7A08788CBE52C0D618D76CA30B4440,-74.977323536,648,8997858,Closed,Issue Resolved,Abandoned Vehicle,SR-PD01,Police Department,0101000020110F00006E9C8F5ED1D65FC1EF6E8F02CF9C5241,2015-02-02 09:47:48,2015-02-18 14:57:08,2015-03-15 20:00:00,12050 WALDEMIRE DR,,,40.090924835,30 Business Days
,,650,8997860,Closed,Question Answered,Information Request,SR-IR01,City Council,,2015-02-02 09:47:50,2015-02-02 09:49:45,,,19128,,,None
,,651,8997861,Closed,Question Answered,Information Request,SR-IR01,Philly311,,2015-02-02 09:47:57,2015-02-02 09:48:32,,,19130,,,None
,,654,8997864,Closed,Question Answered,Information Request,SR-IR01,Office of Human Resources- OHR,,2015-02-02 09:48:29,2015-02-02 09:48:40,,,19146,,,None
,,655,8997865,Closed,Question Answered,Information Request,SR-IR01,Department of Records,,2015-02-02 09:48:40,2015-02-02 09:49:18,,,19124,,,None
,,656,8997866,Closed,Question Answered,Information Request,SR-IR01,Philly311 Contact Center,,2015-02-02 09:49:00,2015-02-02 09:49:00,,,19103,,,None
,,657,8997867,Closed,Question Answered,Information Request,SR-IR01,Philadelphia Water Department- PWD,,2015-02-02 09:49:53,2015-02-02 09:50:38,,,19149,,,None
,,658,8997868,Closed,Question Answered,Information Request,SR-IR01,City Council,,2015-02-02 09:50:04,2015-02-02 09:50:25,,,,,,None
,,659,8997869,Closed,Question Answered,Information Request,SR-IR01,Philadelphia Housing Authority- PHA,,2015-02-02 09:50:08,2015-02-02 09:51:22,,,19133,,,None
,,660,8997870,Closed,Question Answered,Information Request,SR-IR01,Philly311 Contact Center,,2015-02-02 09:50:14,2015-02-02 09:50:15,,,,,,None
,,661,8997871,Closed,Question Answered,Information Request,SR-IR01,State/Federal Government Offices,,2015-02-02 09:50:19,2015-03-24 12:00:18,,,,,,None
,,663,8997873,Closed,Question Answered,Information Request,SR-IR01,Office of Human Resources- OHR,,2015-02-02 09:50:37,2015-02-02 09:51:11,,,19151,,,None
,,664,8997874,Closed,Question Answered,Information Request,SR-IR01,Philly311,,2015-02-02 09:50:39,2015-03-27 09:50:50,,,,,,None
,,665,8997875,Closed,Question Answered,Information Request,SR-IR01,Philly311 Contact Center,,2015-02-02 09:50:48,2015-02-02 09:50:49,,,,,,None
,,666,8997876,Closed,Question Answered,Information Request,SR-IR01,State/Federal Government Offices,,2015-02-02 09:50:51,2015-02-02 09:51:38,,,19121,,,None
,,667,8997882,Closed,Question Answered,Information Request,SR-IR01,,,2015-02-02 09:51:55,2015-02-02 09:52:05,,,,,,None
,,745,8998064,Closed,Question Answered,Information Request,SR-IR01,State/Federal Government Offices,,2015-02-02 10:32:35,2015-02-02 10:32:49,,,19107,,,None
,,668,8997877,Closed,Question Answered,Information Request,SR-IR01,Philly311 Contact Center,,2015-02-02 09:50:54,2015-02-02 09:50:54,,,19143,,,None
,,669,8997880,Closed,Question Answered,Information Request,SR-IR01,Philly311 Contact Center,,2015-02-02 09:51:31,2015-02-02 09:51:32,,,,,,None
0101000020E610000098D90840F3C752C0EB564B11CBFC4340,-75.124221812,671,11437110,Closed,,Illegal Dumping,SR-ST02,Streets Department,0101000020110F0000B4718F87C9E65FC1D6744495578C5241,2017-07-20 19:42:39,2017-07-24 13:31:12,2017-07-27 20:00:00,2601 E NORRIS ST,,https://d17aqltn7cihbm.cloudfront.net/uploads/large_0d4c786ea1067a88885c415001d57b87,39.97494713,5 Business Days
0101000020E61000001EFB381E1CC752C07EBAAA81A0FE4340,-75.111091186,672,11437234,Closed,,Sanitation / Dumpster Violation,SR-ST19,Streets Department,0101000020110F00001A0F261B5CE55FC14D1ADBE75F8E5241,2017-07-21 08:18:08,2017-07-24 13:31:13,2017-07-24 14:00:14,3091 WITTE ST,,,39.989273272,
,,674,8997885,Closed,Question Answered,Information Request,SR-IR01,Philly311,,2015-02-02 09:52:24,2015-02-02 09:53:18,,,19131,,,None
,,675,8997886,Closed,Question Answered,Information Request,SR-IR01,Department of Human Services- DHS,,2015-02-02 09:52:26,2015-02-02 09:52:38,,,19141,,,None
,,471,8997650,Closed,Question Answered,Information Request,SR-IR01,Philly311,,2015-02-02 09:01:32,2015-02-02 09:02:46,,,19120,,,None
,,472,8997651,Closed,Question Answered,Information Request,SR-IR01,Philadelphia Parking Authority- PPA,,2015-02-02 09:01:53,2015-02-02 09:02:05,,,,,,None
,,473,8997652,Closed,Question Answered,Information Request,SR-IR01,,,2015-02-02 09:02:10,2015-02-02 09:02:33,,,,,,None
,,474,8997653,Closed,Question Answered,Information Request,SR-IR01,Philly311 Contact Center,,2015-02-02 09:02:37,2015-02-02 09:02:37,,,,,,None
,,475,8997654,Closed,Question Answered,Information Request,SR-IR01,Philly311 Contact Center,,2015-02-02 09:02:49,2015-02-02 09:02:50,,,19143,,,None
,,476,8997655,Closed,Question Answered,Information Request,SR-IR01,Philly311 Contact Center,,2015-02-02 09:03:03,2015-02-02 09:03:04,,,,,,None
,,477,8997656,Closed,Question Answered,Information Request,SR-IR01,State/Federal Government Offices,,2015-02-02 09:03:08,2015-02-02 09:03:21,,,19106,,,None
,,478,8997657,Closed,Question Answered,Information Request,SR-IR01,,,2015-02-02 09:03:25,2015-02-02 09:03:47,,,,,,None
0101000020E6100000C257CFA468CA52C03755949EABF74340,-75.162636949,479,8997658,Closed,,Construction Site Task Force,SR-LI06,License & Inspections,0101000020110F00003F7D349EF6EA5FC1B34EBF8FAA865241,2015-02-02 09:03:49,2015-09-01 06:49:13,2015-02-03 19:00:00,1115 FEDERAL ST,19147,,39.934924911,48 Hours
,,480,8997659,Closed,Question Answered,Information Request,SR-IR01,Philly311,,2015-02-02 09:03:54,2015-02-02 09:04:25,,,19139,,,None
,,481,8997660,Closed,Question Answered,Information Request,SR-IR01,Managing Director's Office- MDO,,2015-02-02 09:04:30,2015-04-14 12:17:39,,,,,,None
,,483,8997663,Closed,Question Answered,Information Request,SR-IR01,Philly311 Contact Center,,2015-02-02 09:05:28,2015-02-02 09:05:28,,,19120,,,None
,,484,8997662,Closed,Question Answered,Information Request,SR-IR01,First Judicial District/Courts,,2015-02-02 09:05:06,2015-02-02 09:06:21,,,Non-Reside,,,None
,,486,8997665,Closed,Question Answered,Information Request,SR-IR01,Philly311 Contact Center,,2015-02-02 09:05:38,2015-02-02 09:05:39,,,19144,,,None
,,487,8997667,Closed,Question Answered,Information Request,SR-IR01,Revenue,,2015-02-02 09:06:12,2015-02-02 09:07:26,,,,,,None
,,489,8997672,Closed,Question Answered,Information Request,SR-IR01,Philly311 Contact Center,,2015-02-02 09:06:53,2015-02-02 09:06:53,,,,,,None
,,389,8997547,Closed,Question Answered,Information Request,SR-IR01,Police Department,,2015-02-02 08:26:15,2015-02-02 08:26:25,,,,,,None
,,390,8997548,Closed,Question Answered,Information Request,SR-IR01,First Judicial District/Courts,,2015-02-02 08:27:04,2015-02-02 08:27:50,,,145,,,None
,,391,8997550,Closed,Question Answered,Information Request,SR-IR01,Office of Housing & Community Development- OHCD,,2015-02-02 08:27:19,2015-02-02 08:27:31,,,19120,,,None
,,392,8997553,Closed,Question Answered,Information Request,SR-IR01,Philly311 Contact Center,,2015-02-02 08:28:24,2015-02-02 08:28:25,,,19144,,,None
,,393,8997554,Closed,Question Answered,Information Request,SR-IR01,Revenue,,2015-02-02 08:29:14,2015-02-02 08:29:25,,,,,,None
,,394,8997555,Closed,Question Answered,Information Request,SR-IR01,Philly311,,2015-02-02 08:30:05,2015-02-02 08:30:32,,,19131,,,None
,,395,8997556,Closed,Question Answered,Information Request,SR-IR01,Philly311 Contact Center,,2015-02-02 08:31:16,2015-02-02 08:31:16,,,unknown,,,None
,,396,8997557,Closed,Question Answered,Information Request,SR-IR01,Department of Public Health,,2015-02-02 08:31:30,2015-02-02 08:31:39,,,,,,None
,,398,8997558,Closed,Question Answered,Information Request,SR-IR01,Philly311 Contact Center,,2015-02-02 08:31:46,2015-02-02 08:31:46,,,Non-Reside,,,None
,,399,8997559,Closed,Question Answered,Information Request,SR-IR01,Philly311 Contact Center,,2015-02-02 08:31:53,2015-02-02 08:31:54,,,19153,,,None
,,400,8997560,Closed,Question Answered,Information Request,SR-IR01,Department of Human Services- DHS,,2015-02-02 08:32:05,2015-02-02 08:32:14,,,,,,None
,,401,8997561,Closed,Question Answered,Information Request,SR-IR01,Philly311 Contact Center,,2015-02-02 08:32:06,2015-02-02 08:32:06,,,19139,,,None
,,402,8997562,Closed,Question Answered,Information Request,SR-IR01,Department of Records,,2015-02-02 08:32:14,2015-02-02 08:32:43,,,,,,None
,,403,8997563,Closed,Question Answered,Information Request,SR-IR01,Philly311,,2015-02-02 08:32:16,2015-03-27 09:50:34,,,19143,,,None
,,405,8997565,Closed,Question Answered,Information Request,SR-IR01,Revenue,,2015-02-02 08:33:14,2015-02-02 08:34:49,,,19143,,,None
,,507,8997693,Closed,Question Answered,Information Request,SR-IR01,Philly311 Contact Center,,2015-02-02 09:11:24,2015-02-02 09:11:24,,,Non-Provid,,,None
,,508,8997695,Closed,Question Answered,Information Request,SR-IR01,Office of Housing & Community Development- OHCD,,2015-02-02 09:11:51,2015-02-02 09:12:35,,,19145,,,None
,,509,8997696,Closed,Question Answered,Information Request,SR-IR01,Department of Records,,2015-02-02 09:11:52,2015-02-02 09:12:46,,,19136,,,None
,,510,8997697,Closed,Question Answered,Information Request,SR-IR01,Police Department,,2015-02-02 09:12:06,2015-03-13 11:19:03,,,,,,None
,,511,8997698,Closed,Question Answered,Information Request,SR-IR01,Philly311 Contact Center,,2015-02-02 09:12:11,2015-02-02 09:12:11,,,19119,,,None
,,512,8997701,Closed,Question Answered,Information Request,SR-IR01,Philly311 Contact Center,,2015-02-02 09:12:37,2015-02-02 09:12:37,,,,,,None
,,513,8997702,Closed,Question Answered,Information Request,SR-IR01,First Judicial District/Courts,,2015-02-02 09:13:09,2015-02-02 09:13:21,,,19124,,,None
,,515,8997735,Closed,Question Answered,Information Request,SR-IR01,Philly311 Contact Center,,2015-02-02 09:19:53,2015-02-02 09:19:53,,,,,,None
,,516,8997736,Closed,Question Answered,Information Request,SR-IR01,Philly311 Contact Center,,2015-02-02 09:20:19,2015-02-02 09:20:19,,,,,,None
,,517,8997737,Closed,Question Answered,Information Request,SR-IR01,Philly311,,2015-02-02 09:20:34,2015-02-02 09:21:14,,,19132,,,None
,,518,8997738,Closed,Question Answered,Information Request,SR-IR01,,,2015-02-02 09:20:46,2015-02-02 09:21:07,,,,,,None
0101000020E6100000C298A1AF28C352C08C692243F9064440,-75.049358284,519,8997739,Closed,Repair Completed,Graffiti Removal,SR-CL01,Community Life Improvement Program,0101000020110F0000C9214716A6DE5FC1B77F59A6A1975241,2015-02-02 09:21:18,2015-02-09 10:13:37,,7900 E ROOSEVELT BLVD,,,40.054481877,None
,,520,8997740,Closed,Question Answered,Information Request,SR-IR01,First Judicial District/Courts,,2015-02-02 09:21:32,2015-02-02 09:21:59,,,19104,,,None
,,521,8997741,Closed,Question Answered,Information Request,SR-IR01,State/Federal Government Offices,,2015-02-02 09:21:34,2015-02-02 09:23:36,,,,,,None
,,522,8997742,Closed,Question Answered,Information Request,SR-IR01,Philly311,,2015-02-02 09:21:51,2015-02-02 09:22:18,,,,,,None
0101000020E6100000F8659BE1E7CB52C0A107CAAF97F54340,-75.186027914,605,9164904,Closed,,Traffic Signal Emergency,SR-ST25,Streets Department,0101000020110F0000DA93DE9581ED5FC18EE3A0725D845241,2015-05-08 14:01:53,2017-07-30 17:00:21,2017-07-30 17:30:20,23RD STREET DR & OREGON AVE,,,39.918691607,None
0101000020E6100000CE371E4372CA52C0ECA075016DF84340,-75.163224006,606,9812574,Closed,,Traffic (Other),SR-ST24,Streets Department,0101000020110F0000CDE1AEF406EB5FC104AC50C580875241,2015-12-22 09:26:16,2017-07-30 17:00:21,2015-12-29 19:00:00,756 S FAWN ST,19147,,39.940826595,None
,,608,8997810,Closed,Question Answered,Information Request,SR-IR01,,,2015-02-02 09:37:12,2015-02-02 09:37:22,,,,,,None
,,609,8997811,Closed,Question Answered,Information Request,SR-IR01,First Judicial District/Courts,,2015-02-02 09:37:30,2015-02-02 09:38:29,,,,,,None
,,610,8997812,Closed,,Information Request,SR-IR01,Licenses & Inspections- L&I,,2015-02-02 09:37:31,2015-02-02 09:39:45,,,Non-Reside,,,None
,,611,8997813,Closed,Question Answered,Information Request,SR-IR01,Revenue,,2015-02-02 09:37:32,2015-02-02 09:37:48,,,19147,,,None
,,613,8997816,Closed,,Information Request,SR-IR01,Licenses & Inspections- L&I,,2015-02-02 09:38:46,2015-02-02 09:39:25,,,,,,None
,,614,8997817,Closed,Question Answered,Information Request,SR-IR01,City Controller,,2015-02-02 09:39:06,2015-02-02 09:42:44,,,19111,,,None
,,615,8997818,Closed,Question Answered,Information Request,SR-IR01,State/Federal Government Offices,,2015-02-02 09:39:37,2015-02-02 09:39:51,,,19147,,,None
,,616,8997819,Closed,Question Answered,Information Request,SR-IR01,Philly311 Contact Center,,2015-02-02 09:39:54,2015-02-02 09:39:54,,,,,,None
,,617,8997820,Closed,Question Answered,Information Request,SR-IR01,Philly311 Contact Center,,2015-02-02 09:40:01,2015-02-02 09:40:01,,,,,,None
0101000020E610000049D44D5A5FCE52C05724E48B8FF64340,-75.224569874,618,8997821,Closed,Repair Completed,Smoke Detector,SR-FD02,Fire Department,0101000020110F0000C05C0934B2F15FC12BC62AEF6F855241,2015-02-02 09:40:12,2015-04-09 15:30:34,2015-04-26 20:00:00,6045 ELMWOOD AVE,19142,,39.926255685,60 Business Days
,,619,8997825,Closed,Question Answered,Information Request,SR-IR01,Philly311 Contact Center,,2015-02-02 09:41:09,2015-02-02 09:41:10,,,unknown,,,None
,,620,8997929,Closed,Question Answered,Information Request,SR-IR01,Philly311 Contact Center,,2015-02-02 10:03:54,2015-02-02 10:03:54,,,unknown,,,None
,,555,8997753,Closed,Question Answered,Information Request,SR-IR01,Philadelphia Water Department- PWD,,2015-02-02 09:24:32,2015-02-02 09:25:08,,,19115,,,None
,,557,8997755,Closed,Question Answered,Information Request,SR-IR01,Philly311 Contact Center,,2015-02-02 09:24:55,2015-02-02 09:24:55,,,19151,,,None
,,558,8997757,Closed,Question Answered,Information Request,SR-IR01,First Judicial District/Courts,,2015-02-02 09:25:31,2015-02-02 09:26:41,,,19144,,,None
,,412,8997574,Closed,Question Answered,Information Request,SR-IR01,Philly311 Contact Center,,2015-02-02 08:36:59,2015-02-02 08:36:59,,,,,,None
,,413,8997575,Closed,Question Answered,Information Request,SR-IR01,Board of Revision of Taxes- BRT,,2015-02-02 08:37:53,2015-02-02 08:38:06,,,19139,,,None
,,414,8997576,Closed,Question Answered,Information Request,SR-IR01,Philly311 Contact Center,,2015-02-02 08:38:02,2015-02-02 08:38:02,,,unknown,,,None
,,415,8997579,Closed,Question Answered,Information Request,SR-IR01,Philly311 Contact Center,,2015-02-02 08:39:26,2015-02-02 08:39:26,,,19120,,,None
,,416,8997580,Closed,,Information Request,SR-IR01,Licenses & Inspections- L&I,,2015-02-02 08:40:11,2015-02-02 08:40:22,,,,,,None
,,417,8997581,Closed,,Information Request,SR-IR01,Licenses & Inspections- L&I,,2015-02-02 08:40:59,2015-02-02 08:42:44,,,19119,,,None
,,420,8997584,Closed,Question Answered,Information Request,SR-IR01,Police Department,,2015-02-02 08:42:31,2015-02-02 08:42:42,,,,,,None
,,421,8997585,Closed,Question Answered,Information Request,SR-IR01,First Judicial District/Courts,,2015-02-02 08:43:06,2015-02-02 08:43:14,,,,,,None
,,422,8997586,Closed,Question Answered,Information Request,SR-IR01,Philly311 Contact Center,,2015-02-02 08:43:49,2015-02-02 08:43:49,,,19146,,,None
0101000020E610000045B4A18B5BCA52C0B9E6A79B38FC4340,-75.161837487,423,8997588,Closed,Issue Resolved,Abandoned Vehicle,SR-PD01,Police Department,0101000020110F00000A8B7E5EE0EA5FC108B25045B58B5241,2015-02-02 08:44:09,2015-02-18 15:28:37,2015-03-12 20:00:00,1512 POPLAR ST,19130,,39.970477538,30 Business Days
,,3482155,11823129,Closed,Question Answered,Information Request,SR-IR01,Office of Human Resources- OHR,,2018-02-15 10:29:59,2018-02-15 10:30:24,2018-02-15 11:00:10,,,,,
,,425,8997595,Closed,Question Answered,Information Request,SR-IR01,Philadelphia Water Department- PWD,,2015-02-02 08:45:19,2015-02-02 08:45:45,,,19135,,,None
,,3482153,11823127,Closed,,Information Request,SR-IR01,Streets Department,,2018-02-15 10:29:53,2018-02-15 10:30:11,2018-02-15 11:00:10,,,,,
0101000020E61000001D26966BFCC952C00C32557246074440,-75.15603151,344,8997596,Closed,Issue Resolved,Abandoned Vehicle,SR-PD01,Police Department,0101000020110F0000845A18CA3EEA5FC18250EA4AF7975241,2015-02-02 08:45:21,2015-08-12 03:47:42,2015-03-12 20:00:00,6832 RODNEY ST,,https://d21tc4b3k3r3vo.cloudfront.net/uploads/27412/requests/54cf7c1194b9a-369.jpg,40.056837365,30 Business Days
,,345,8997597,Closed,Question Answered,Information Request,SR-IR01,Philly311,,2015-02-02 08:45:42,2015-02-02 08:46:12,,,,,,None
,,346,8997598,Closed,Question Answered,Information Request,SR-IR01,Behavioral Health and Intellectual Disability Services- DBHIDS,,2015-02-02 08:46:05,2015-02-02 08:46:21,,,19135,,,None
,,347,8997599,Closed,Question Answered,Information Request,SR-IR01,Department of Public Health,,2015-02-02 08:46:25,2015-02-02 08:47:34,,,19124,,,None
,,349,8997602,Closed,Question Answered,Information Request,SR-IR01,State/Federal Government Offices,,2015-02-02 08:47:13,2015-02-02 08:48:37,,,19135,,,None
,,350,8997603,Closed,Question Answered,Information Request,SR-IR01,Philly311 Contact Center,,2015-02-02 08:47:25,2015-03-24 10:58:59,,,,,,None
,,352,8997605,Closed,,Information Request,SR-IR01,Licenses & Inspections- L&I,,2015-02-02 08:48:13,2015-02-02 08:48:55,,,,,,None
,,353,8997606,Closed,Question Answered,Information Request,SR-IR01,Philly311 Contact Center,,2015-02-02 08:48:17,2015-02-02 08:48:17,,,19121,,,None
,,354,8997608,Closed,,Information Request,SR-IR01,Licenses & Inspections- L&I,,2015-02-02 08:48:39,2015-02-02 08:50:35,,,,,,None
,,355,8997610,Closed,Question Answered,Information Request,SR-IR01,First Judicial District/Courts,,2015-02-02 08:49:02,2015-02-02 08:49:16,,,19124,,,None
0101000020E6100000CDF3544580CA52C09F1DD3876CFC4340,-75.164079027,356,8997615,Closed,,Construction Site Task Force,SR-LI06,License & Inspections,0101000020110F000093683AC01EEB5FC10B16EBCFEE8B5241,2015-02-02 08:50:11,2015-09-01 06:58:07,2015-02-03 19:00:00,1639 W GIRARD AVE,19130,,39.972062086,48 Hours
,,357,8997611,Closed,Question Answered,Information Request,SR-IR01,Revenue,,2015-02-02 08:49:28,2015-02-02 08:49:51,,,,,,None
,,359,8997614,Closed,Question Answered,Information Request,SR-IR01,Philly311 Contact Center,,2015-02-02 08:50:00,2015-03-23 13:56:21,,,,,,None
,,361,8997617,Closed,Question Answered,Information Request,SR-IR01,Philadelphia Water Department- PWD,,2015-02-02 08:50:47,2015-02-02 08:51:13,,,19111,,,None
,,362,8997618,Closed,Question Answered,Information Request,SR-IR01,Philly311 Contact Center,,2015-02-02 08:52:04,2015-02-02 08:52:04,,,19102,,,None
,,363,8997620,Closed,Question Answered,Information Request,SR-IR01,Office of Human Resources- OHR,,2015-02-02 08:52:23,2015-02-02 08:52:37,,,,,,None
,,364,8997622,Closed,Question Answered,Information Request,SR-IR01,,,2015-02-02 08:52:41,2015-02-02 08:52:57,,,,,,None
,,983,8998240,Closed,Question Answered,Information Request,SR-IR01,Office of Human Resources- OHR,,2015-02-02 11:07:40,2015-02-02 11:07:54,,,,,,None
,,986,8998239,Closed,Question Answered,Information Request,SR-IR01,Office of Human Resources- OHR,,2015-02-02 11:07:05,2015-02-02 11:07:16,,,,,,None
,,987,8998247,Closed,Question Answered,Information Request,SR-IR01,Philly311 Contact Center,,2015-02-02 11:09:30,2015-02-02 11:09:30,,,,,,None
,,988,8998243,Closed,Question Answered,Information Request,SR-IR01,Philadelphia Water Department- PWD,,2015-02-02 11:08:44,2015-02-02 11:09:36,,,19134,,,None
,,989,8998241,Closed,Question Answered,Information Request,SR-IR01,Philly311 Contact Center,,2015-02-02 11:08:25,2015-02-02 11:08:25,,,,,,None
,,990,8998244,Closed,Question Answered,Information Request,SR-IR01,First Judicial District/Courts,,2015-02-02 11:09:02,2015-02-02 11:09:24,,,19142,,,None
,,938,8998292,Closed,Question Answered,Information Request,SR-IR01,State/Federal Government Offices,,2015-02-02 11:19:16,2015-02-02 11:19:32,,,,,,None
,,939,8998294,Closed,Question Answered,Information Request,SR-IR01,Philly311 Contact Center,,2015-02-02 11:19:24,2015-02-02 11:19:25,,,,,,None
,,940,8998295,Closed,Question Answered,Information Request,SR-IR01,First Judicial District/Courts,,2015-02-02 11:19:34,2015-02-02 11:19:48,,,19115,,,None
,,941,8998297,Closed,Question Answered,Information Request,SR-IR01,Water Revenue,,2015-02-02 11:20:10,2015-02-02 11:20:28,,,,,,None
,,942,8998298,Closed,Question Answered,Information Request,SR-IR01,Department of Records,,2015-02-02 11:20:12,2015-02-02 11:20:27,,,,,,None
,,943,8998299,Closed,Question Answered,Information Request,SR-IR01,Revenue,,2015-02-02 11:20:27,2015-02-02 11:21:12,,,19106,,,None
,,944,8998302,Closed,Question Answered,Information Request,SR-IR01,Philly311,,2015-02-02 11:21:11,2015-02-02 11:21:49,,,19124,,,None
,,788,8998013,Closed,Question Answered,Information Request,SR-IR01,First Judicial District/Courts,,2015-02-02 10:22:23,2015-02-02 10:22:32,,,,,,None
,,789,9257690,Closed,,Information Request,SR-IR01,Streets Department,,2015-07-01 09:38:33,2017-05-31 21:13:48,2017-05-31 21:30:29,,,,,None
,,791,8998017,Closed,Question Answered,Information Request,SR-IR01,Philly311 Contact Center,,2015-02-02 10:23:45,2015-02-02 10:23:45,,,19150,,,None
,,792,8998018,Closed,Question Answered,Information Request,SR-IR01,Philly311 Contact Center,,2015-02-02 10:23:53,2015-02-02 10:23:53,,,,,,None
0101000020E6100000E1F4AAA5ABC952C011A8616C5F074440,-75.151101512,793,9352896,Closed,,Illegal Dumping,SR-ST02,Streets Department,0101000020110F0000F0C39196B5E95FC15F08D60113985241,2015-08-25 10:03:54,2017-05-31 21:13:48,2015-08-31 20:00:00,2006 68TH AVE,19138,,40.057599587,5 Business Days
,,872,8998108,Closed,Question Answered,Information Request,SR-IR01,First Judicial District/Courts,,2015-02-02 10:43:13,2015-02-02 10:43:42,,,,,,None
,,873,8998109,Closed,Question Answered,Information Request,SR-IR01,First Judicial District/Courts,,2015-02-02 10:43:15,2015-02-02 10:44:17,,,19120,,,None
,,874,8998110,Closed,Question Answered,Information Request,SR-IR01,Philadelphia Water Department- PWD,,2015-02-02 10:43:23,2015-02-02 10:43:36,,,19140,,,None
,,876,8998113,Closed,Question Answered,Information Request,SR-IR01,Philly311 Contact Center,,2015-02-02 10:43:48,2015-02-02 10:43:48,,,19131,,,None
,,877,8998114,Closed,Question Answered,Information Request,SR-IR01,Philly311 Contact Center,,2015-02-02 10:44:00,2015-02-02 10:44:00,,,19102,,,None
,,879,8998116,Closed,,Information Request,SR-IR01,Licenses & Inspections- L&I,,2015-02-02 10:44:19,2015-02-02 10:44:38,,,,,,None
,,881,8998119,Closed,,Information Request,SR-IR01,Licenses & Inspections- L&I,,2015-02-02 10:45:02,2015-02-02 10:45:43,,,,,,None
0101000020E61000002FB21146BBC952C0E9D495CF72FF4340,-75.152055279,883,10530327,Closed,,Salting,SR-ST18,Streets Department,0101000020110F00008552A721D0E95FC1ACF4750A498F5241,2016-01-25 08:59:24,2017-07-29 18:25:21,2017-07-29 18:30:22,1300 W RUSH ST,,,39.99569125,None
,,884,8998122,Closed,Question Answered,Information Request,SR-IR01,Philly311 Contact Center,,2015-02-02 10:45:12,2015-02-02 10:45:13,,,19131,,,None
,,885,8998123,Closed,Question Answered,Information Request,SR-IR01,Revenue,,2015-02-02 10:45:21,2015-02-02 10:45:43,,,19133,,,None
,,886,8998124,Closed,Question Answered,Information Request,SR-IR01,Philly311 Contact Center,,2015-02-02 10:45:36,2015-02-02 10:45:36,,,,,,None
,,887,8998125,Closed,Question Answered,Information Request,SR-IR01,Philly311 Contact Center,,2015-02-02 10:45:37,2015-02-02 10:45:37,,,19144,,,None
,,3943279,11926846,Closed,Information Provided,Miscellaneous,SR-MI01,Philly311 Contact Center,,2018-04-19 18:27:11,2018-04-20 13:30:16,2018-04-20 14:00:12,,,,,
0101000020E61000000AEF17586CCB52C06C78DDCF67044440,-75.178487797,891,10531472,Closed,,Salting,SR-ST18,Streets Department,0101000020110F00003B95C0BEAFEC5FC1E8DF5C45C8945241,2016-01-25 10:04:13,2017-07-29 18:25:21,2017-07-29 18:30:22,100 W PRICE ST,19144,,40.034418094,None
,,676,8997887,Closed,,Information Request,SR-IR01,Licenses & Inspections- L&I,,2015-02-02 09:52:37,2015-02-02 09:53:40,,,,,,None
,,679,8997892,Closed,Question Answered,Information Request,SR-IR01,Philadelphia Water Department- PWD,,2015-02-02 09:53:09,2015-02-02 09:54:23,,,19148,,,None
,,680,8997893,Closed,Question Answered,Information Request,SR-IR01,Philly311 Contact Center,,2015-02-02 09:53:14,2015-02-02 09:53:15,,,19126,,,None
,,681,8997894,Closed,Question Answered,Information Request,SR-IR01,Philly311 Contact Center,,2015-02-02 09:53:36,2015-02-02 09:53:36,,,,,,None
,,682,8997895,Closed,Question Answered,Information Request,SR-IR01,Philly311 Contact Center,,2015-02-02 09:54:06,2015-02-02 09:54:07,,,,,,None
,,684,8997897,Closed,Question Answered,Information Request,SR-IR01,Philadelphia Parking Authority- PPA,,2015-02-02 09:54:34,2015-03-26 14:39:55,,,,,,None
